{"type": "FeatureCollection", "features": [{"type": "Feature", "properties": {"featurecla": "Lake", "scalerank": 4, "name": null, "name_abb": null, "name_alt": null, "note": "_untitled_17", "delta": null, "dam_name": null, "year": -99, "admin": null, "min_zoom": 4, "min_label": 5, "label": null, "wikidataid": null, "name_ar": null, "name_bn": null, "name_de": null, "name_en": null, "name_es": null, "name_fr": null, "name_el": null, "name_hi": null, "name_hu": null, "name_id": null, "name_it": null, "name_ja": null, "name_ko": null, "name_nl": null, "name_pl": null, "name_pt": null, "name_ru": null, "name_sv": null, "name_tr": null, "name_vi": null, "name_zh": null, "ne_id": 1159113715, "name_fa": null, "name_he": null, "name_uk": null, "name_ur": null, "name_zht": null}, "bbox": [114.433617, 30.066171, 114.436855, 30.067054], "geometry": {"type": "Polygon", "coordinates": [[[114.433617, 30.066171], [114.435972, 30.067054], [114.436855, 30.067054], [114.435677, 30.066466], [114.433617, 30.066171]]]}}, {"type": "Feature", "properties": {"featurecla": "Lake", "scalerank": 4, "name": null, "name_abb": null, "name_alt": null, "note": "_untitled_16", "delta": null, "dam_name": null, "year": -99, "admin": null, "min_zoom": 4, "min_label": 5, "label": null, "wikidataid": null, "name_ar": null, "name_bn": null, "name_de": null, "name_en": null, "name_es": null, "name_fr": null, "name_el": null, "name_hi": null, "name_hu": null, "name_id": null, "name_it": null, "name_ja": null, "name_ko": null, "name_nl": null, "name_pl": null, "name_pt": null, "name_ru": null, "name_sv": null, "name_tr": null, "name_vi": null, "name_zh": null, "ne_id": 1159113731, "name_fa": null, "name_he": null, "name_uk": null, "name_ur": null, "name_zht": null}, "bbox": [114.436855, 30.067054, 114.440976, 30.068526], "geometry": {"type": "Polygon", "coordinates": [[[114.440093, 30.067349], [114.436855, 30.067054], [114.440976, 30.068526], [114.440093, 30.067349]]]}}, {"type": "Feature", "properties": {"featurecla": "Lake", "scalerank": 4, "name": "Poyang Hu", "name_abb": "Poyang Hu", "name_alt": null, "note": null, "delta": null, "dam_name": null, "year": -99, "admin": null, "min_zoom": 4, "min_label": 5, "label": "Poyang Hu", "wikidataid": "Q207690", "name_ar": "بحيرة بويانغ", "name_bn": "পোয়াং হু", "name_de": "Poyang", "name_en": "Poyang", "name_es": "Poyang", "name_fr": "Poyang", "name_el": "Πουανγκ Χου", "name_hi": "पोयांग झील", "name_hu": "Poyang Hu", "name_id": "Poyang", "name_it": "Poyang", "name_ja": "鄱陽湖", "name_ko": "포양호", "name_nl": "Poyangmeer", "name_pl": "Poyang Hu", "name_pt": "Poyang", "name_ru": "Поянху", "name_sv": "Poyangsjön", "name_tr": "Poyang", "name_vi": "Bà Dương", "name_zh": "鄱阳湖", "ne_id": 1159114015, "name_fa": "دریاچه پویانگ", "name_he": "אגם פויאנג", "name_uk": "Поянху", "name_ur": "پویانگ ہو", "name_zht": "鄱陽湖"}, "bbox": [115.907498, 28.776856, 116.715233, 29.750907], "geometry": {"type": "Polygon", "coordinates": [[[116.677555, 29.173365], [116.688446, 29.168066], [116.715233, 29.137158], [116.715233, 29.097125], [116.70758, 29.082995], [116.688446, 29.07858], [116.690801, 29.091826], [116.689918, 29.112137], [116.684325, 29.127739], [116.656655, 29.12715], [116.645763, 29.112726], [116.637227, 29.091826], [116.6334, 29.072398], [116.625747, 29.074164], [116.622803, 29.075636], [116.618976, 29.07858], [116.623686, 29.086233], [116.62663, 29.094475], [116.627513, 29.103601], [116.626335, 29.113315], [116.623686, 29.120968], [116.619271, 29.130682], [116.615444, 29.135686], [116.607202, 29.117436], [116.593072, 29.12244], [116.576588, 29.13392], [116.564519, 29.140691], [116.556865, 29.137158], [116.543325, 29.12244], [116.537143, 29.119496], [116.529784, 29.123617], [116.523308, 29.132154], [116.518598, 29.142457], [116.516537, 29.151288], [116.506823, 29.160707], [116.48769, 29.159824], [116.47621, 29.152171], [116.488573, 29.140691], [116.483274, 29.124501], [116.492694, 29.112137], [116.508295, 29.103601], [116.523308, 29.099774], [116.516537, 29.085939], [116.53155, 29.079757], [116.537143, 29.07858], [116.537143, 29.072398], [116.512416, 29.069749], [116.485629, 29.0462], [116.461197, 29.051204], [116.459725, 29.036486], [116.461197, 29.024417], [116.468556, 29.017058], [116.482391, 29.017058], [116.480036, 28.998807], [116.48975, 28.983794], [116.504174, 28.970254], [116.516537, 28.95583], [116.52213, 28.940523], [116.522425, 28.924627], [116.518009, 28.909026], [116.509178, 28.894308], [116.52478, 28.890481], [116.535377, 28.895485], [116.544796, 28.898135], [116.558043, 28.886654], [116.550684, 28.880473], [116.558043, 28.873702], [116.541264, 28.866049], [116.533905, 28.861045], [116.530961, 28.856335], [116.533022, 28.845738], [116.541264, 28.830725], [116.543325, 28.825427], [116.54097, 28.812769], [116.535082, 28.796579], [116.526546, 28.782449], [116.516537, 28.776856], [116.523308, 28.790692], [116.518892, 28.791575], [116.515654, 28.792752], [116.513005, 28.794518], [116.509178, 28.798051], [116.481508, 28.79128], [116.472088, 28.790692], [116.46208, 28.794224], [116.456487, 28.803055], [116.453249, 28.814535], [116.448245, 28.825427], [116.438531, 28.836024], [116.429994, 28.842794], [116.423224, 28.850153], [116.420869, 28.862811], [116.424107, 28.874291], [116.432349, 28.882828], [116.454721, 28.894308], [116.426168, 28.899606], [116.404973, 28.874291], [116.388489, 28.840145], [116.372593, 28.818362], [116.365823, 28.825427], [116.371416, 28.83308], [116.39261, 28.877823], [116.419103, 28.917563], [116.424696, 28.929926], [116.427934, 28.943172], [116.427345, 28.95583], [116.420575, 28.966133], [116.413804, 28.961423], [116.4088, 28.948765], [116.40674, 28.935224], [116.397614, 28.940523], [116.393199, 28.938462], [116.386134, 28.921389], [116.3879, 28.919623], [116.39261, 28.906082], [116.393199, 28.900489], [116.39055, 28.898723], [116.381424, 28.894013], [116.379658, 28.890481], [116.373182, 28.87017], [116.358464, 28.850153], [116.342274, 28.841322], [116.331088, 28.853391], [116.333737, 28.863988], [116.354637, 28.883122], [116.359053, 28.894308], [116.353754, 28.904611], [116.344334, 28.907554], [116.335209, 28.908143], [116.331088, 28.911381], [116.333149, 28.925216], [116.338742, 28.941112], [116.359053, 28.976141], [116.344334, 28.980851], [116.329911, 28.982911], [116.2678, 28.980262], [116.260735, 28.985855], [116.269566, 29.004106], [116.264267, 29.007932], [116.259558, 29.012642], [116.256614, 29.019118], [116.255142, 29.027655], [116.252198, 29.031481], [116.206572, 29.033248], [116.19833, 29.037957], [116.194503, 29.051204], [116.187733, 29.051204], [116.174192, 29.038841], [116.155647, 29.047083], [116.142989, 29.066216], [116.145933, 29.085939], [116.131509, 29.082701], [116.115908, 29.077108], [116.10325, 29.078285], [116.093536, 29.114492], [116.08235, 29.125678], [116.057329, 29.140691], [116.042317, 29.165417], [116.035841, 29.181313], [116.040256, 29.188378], [116.074991, 29.183668], [116.084117, 29.186906], [116.077935, 29.202213], [116.140046, 29.197208], [116.158885, 29.203096], [116.14505, 29.212515], [116.123856, 29.220758], [116.102661, 29.223996], [116.088238, 29.219874], [116.077641, 29.223996], [116.005816, 29.239891], [115.997573, 29.254315], [115.98992, 29.272271], [115.980795, 29.280219], [115.967843, 29.264029], [115.967548, 29.249017], [115.974907, 29.232827], [115.980795, 29.215459], [115.975202, 29.195737], [115.929281, 29.203979], [115.907498, 29.216931], [115.922216, 29.250194], [115.924277, 29.262852], [115.927809, 29.273449], [115.97844, 29.294643], [115.984916, 29.299353], [116.009642, 29.311127], [116.01759, 29.319075], [116.024066, 29.327906], [116.028187, 29.338798], [116.029954, 29.352927], [116.02701, 29.361169], [116.00405, 29.410328], [115.998751, 29.417393], [115.990509, 29.42122], [115.975202, 29.42122], [115.975202, 29.428579], [115.991392, 29.433583], [116.001695, 29.440059], [116.01082, 29.447712], [116.023183, 29.455955], [116.046144, 29.448007], [116.060862, 29.463314], [116.070576, 29.485391], [116.077935, 29.49746], [116.077935, 29.503642], [116.063217, 29.509529], [116.070576, 29.51836], [116.086471, 29.528957], [116.098246, 29.538376], [116.097069, 29.544558], [116.092653, 29.553683], [116.090298, 29.56222], [116.112081, 29.579587], [116.116497, 29.593717], [116.12886, 29.65936], [116.126211, 29.66878], [116.116497, 29.674667], [116.098246, 29.681732], [116.100895, 29.685853], [116.105605, 29.695567], [116.092653, 29.694389], [116.069398, 29.688797], [116.060862, 29.692035], [116.092947, 29.724415], [116.102073, 29.730302], [116.150054, 29.727947], [116.173603, 29.73354], [116.187733, 29.750907], [116.229238, 29.743843], [116.210399, 29.735012], [116.193326, 29.718527], [116.188027, 29.702632], [116.204806, 29.695567], [116.238658, 29.708225], [116.256908, 29.709696], [116.269566, 29.695567], [116.247783, 29.691151], [116.243073, 29.683792], [116.244839, 29.673784], [116.243073, 29.661421], [116.232182, 29.651412], [116.217758, 29.670252], [116.204806, 29.664953], [116.202451, 29.650235], [116.205983, 29.630807], [116.205689, 29.613439], [116.190971, 29.60608], [116.187733, 29.598427], [116.195386, 29.581059], [116.207161, 29.562809], [116.215697, 29.552212], [116.195681, 29.556627], [116.186261, 29.564869], [116.179491, 29.574878], [116.167127, 29.585769], [116.152115, 29.554272], [116.145639, 29.533667], [116.14976, 29.524247], [116.157119, 29.521303], [116.162417, 29.514533], [116.166244, 29.506585], [116.17066, 29.500698], [116.168893, 29.495694], [116.152115, 29.477737], [116.145933, 29.469495], [116.151232, 29.460959], [116.152998, 29.452422], [116.150937, 29.443591], [116.145933, 29.43476], [116.115614, 29.443886], [116.08029, 29.418276], [116.061745, 29.383835], [116.081467, 29.366468], [116.114142, 29.367645], [116.150643, 29.373533], [116.184789, 29.387956], [116.208044, 29.415038], [116.223056, 29.380892], [116.225706, 29.363819], [116.221879, 29.346157], [116.214225, 29.358226], [116.206572, 29.356459], [116.198035, 29.347923], [116.187733, 29.339386], [116.145639, 29.342036], [116.132981, 29.339386], [116.120323, 29.324962], [116.123561, 29.312305], [116.145933, 29.290816], [116.161829, 29.27963], [116.166244, 29.273743], [116.130626, 29.264029], [116.126211, 29.264029], [116.12415, 29.24725], [116.140046, 29.244012], [116.174192, 29.250488], [116.181845, 29.248722], [116.189205, 29.244601], [116.196858, 29.242246], [116.204806, 29.246662], [116.217169, 29.258436], [116.22394, 29.262852], [116.229238, 29.264029], [116.236008, 29.258436], [116.246017, 29.234593], [116.255142, 29.223112], [116.266328, 29.215753], [116.280752, 29.210455], [116.296059, 29.209572], [116.310483, 29.216342], [116.306656, 29.220758], [116.305478, 29.22429], [116.305478, 29.228705], [116.303712, 29.236948], [116.316664, 29.232238], [116.325495, 29.236065], [116.331971, 29.241657], [116.338447, 29.243129], [116.346101, 29.23577], [116.346395, 29.228411], [116.347867, 29.221641], [116.359053, 29.216342], [116.366412, 29.232827], [116.372299, 29.238714], [116.379658, 29.229294], [116.378775, 29.221641], [116.369944, 29.196325], [116.365823, 29.188378], [116.338153, 29.171304], [116.324023, 29.156881], [116.324906, 29.140691], [116.33933, 29.139807], [116.364646, 29.166889], [116.365823, 29.147461], [116.372888, 29.15011], [116.379658, 29.15482], [116.393199, 29.140691], [116.397909, 29.152171], [116.39732, 29.163357], [116.394671, 29.175131], [116.393199, 29.188378], [116.399381, 29.188378], [116.407917, 29.176603], [116.422047, 29.176014], [116.434999, 29.183962], [116.440886, 29.198975], [116.442358, 29.207806], [116.445596, 29.215165], [116.447068, 29.221346], [116.444713, 29.226351], [116.438237, 29.234593], [116.435587, 29.244307], [116.43647, 29.254609], [116.440886, 29.264029], [116.437059, 29.266973], [116.432055, 29.273449], [116.427345, 29.277864], [116.445596, 29.280808], [116.463552, 29.269622], [116.477093, 29.249311], [116.488573, 29.202507], [116.500053, 29.204568], [116.50594, 29.223112], [116.495638, 29.250488], [116.510356, 29.24519], [116.514477, 29.231355], [116.516243, 29.216636], [116.523308, 29.208983], [116.536554, 29.213987], [116.541853, 29.229294], [116.541264, 29.246073], [116.537143, 29.257259], [116.543325, 29.257259], [116.550389, 29.251371], [116.555394, 29.252255], [116.558337, 29.259025], [116.558043, 29.271094], [116.570406, 29.248133], [116.588362, 29.245484], [116.606613, 29.24725], [116.618976, 29.236948], [116.605435, 29.236948], [116.618976, 29.202213], [116.629573, 29.232238], [116.630751, 29.246367], [116.626335, 29.264029], [116.641053, 29.257847], [116.65636, 29.249017], [116.665191, 29.239303], [116.660776, 29.229294], [116.688446, 29.216342], [116.684031, 29.212221], [116.678438, 29.2081], [116.667546, 29.202213], [116.65636, 29.209277], [116.651356, 29.207511], [116.648413, 29.200741], [116.643703, 29.192204], [116.618976, 29.168066], [116.623686, 29.150405], [116.638404, 29.152465], [116.664014, 29.168066], [116.67255, 29.169833], [116.674611, 29.172776], [116.677555, 29.173365]]]}}, {"type": "Feature", "properties": {"featurecla": "Lake", "scalerank": 4, "name": "Daguan Hu", "name_abb": "Daguan Hu", "name_alt": null, "note": null, "delta": null, "dam_name": null, "year": -99, "admin": null, "min_zoom": 4, "min_label": 5, "label": null, "wikidataid": null, "name_ar": "بحيرة داغوان", "name_bn": "দাগুয়ান হু", "name_de": "Daguan Hu", "name_en": "Daguan Lake", "name_es": "Daguan Hu", "name_fr": "Daguan Lake", "name_el": "Νταγκουάν Χου", "name_hi": "डगुआन हु", "name_hu": "Daguan Hu", "name_id": "Danau Daguan", "name_it": "Daguan Hu", "name_ja": "大官湖", "name_ko": "다관 후", "name_nl": "Daguan Lake", "name_pl": "Jezioro Daguan", "name_pt": "Lago Daguan", "name_ru": "озеро Дагуан", "name_sv": "Daguan Hu", "name_tr": "Daguan Hu", "name_vi": "Hồ Đại Quan", "name_zh": "大官湖", "ne_id": 1159114031, "name_fa": "داگوآن هو", "name_he": "דגואן", "name_uk": "Дагуан Ху", "name_ur": "ڈیگوان ہو", "name_zht": "大官湖"}, "bbox": [116.234831, 29.948131, 116.530961, 30.139174], "geometry": {"type": "Polygon", "coordinates": [[[116.461197, 30.093547], [116.459725, 30.08089], [116.443241, 30.0647], [116.436765, 30.050864], [116.494755, 30.038795], [116.50859, 30.023194], [116.517126, 30.003177], [116.530961, 29.983455], [116.509178, 29.96285], [116.477976, 29.950781], [116.442358, 29.948131], [116.40674, 29.956079], [116.395259, 29.96491], [116.376126, 29.986987], [116.365823, 29.989637], [116.354932, 29.981983], [116.353754, 29.970503], [116.349339, 29.958434], [116.331088, 29.94872], [116.309011, 29.963733], [116.302829, 29.973152], [116.303712, 29.989637], [116.291349, 29.986693], [116.281635, 29.989637], [116.27457, 29.995818], [116.269566, 30.004061], [116.276042, 30.007887], [116.284284, 30.014952], [116.289288, 30.017601], [116.270155, 30.0229], [116.258674, 30.014952], [116.257203, 30.010831], [116.247194, 30.036441], [116.25632, 30.042622], [116.255142, 30.066171], [116.240424, 30.05999], [116.234831, 30.072059], [116.236597, 30.091192], [116.243073, 30.107088], [116.245722, 30.102378], [116.251021, 30.097963], [116.255142, 30.093547], [116.254259, 30.105616], [116.245134, 30.120629], [116.243073, 30.130637], [116.2469, 30.139174], [116.255731, 30.135053], [116.264856, 30.126516], [116.269566, 30.120629], [116.278397, 30.078535], [116.286639, 30.059695], [116.303712, 30.058812], [116.289288, 30.099435], [116.291938, 30.117391], [116.310483, 30.12681], [116.315487, 30.095313], [116.320491, 30.081184], [116.331088, 30.072942], [116.33462, 30.086188], [116.339625, 30.085305], [116.345512, 30.07824], [116.351399, 30.072942], [116.386134, 30.058812], [116.380836, 30.051453], [116.38113, 30.044683], [116.387606, 30.039973], [116.399381, 30.038207], [116.401147, 30.050864], [116.407328, 30.058224], [116.420869, 30.058812], [116.420869, 30.066171], [116.410861, 30.076474], [116.424107, 30.087954], [116.444124, 30.101201], [116.461197, 30.093547]]]}}, {"type": "Feature", "properties": {"featurecla": "Lake", "scalerank": 4, "name": "Long Hu", "name_abb": "Long Hu", "name_alt": null, "note": null, "delta": null, "dam_name": null, "year": -99, "admin": null, "min_zoom": 4, "min_label": 5, "label": "Long Hu", "wikidataid": "Q6673852", "name_ar": "بحيرة لونج", "name_bn": "লং হু", "name_de": "Longhu", "name_en": "Longgan", "name_es": "Longgan", "name_fr": "Longhu", "name_el": "Λονγκ Χου", "name_hi": "लॉन्ग हू", "name_hu": "Long Hu", "name_id": "Long Hu", "name_it": "Long Hu", "name_ja": "龍湖", "name_ko": "롱 후", "name_nl": "Longhu Lake", "name_pl": "Jezioro Long", "name_pt": "Lago Long", "name_ru": "озеро Лунху", "name_sv": "Longgan Hu", "name_tr": "Long Hu", "name_vi": "Long Hồ", "name_zh": "龙感湖", "ne_id": 1159114049, "name_fa": "لونگ هو", "name_he": "אגם לונג", "name_uk": "Лонгху", "name_ur": "لانگ ہو", "name_zht": "龙感湖"}, "bbox": [115.933991, 29.866887, 116.269566, 30.085011], "geometry": {"type": "Polygon", "coordinates": [[[116.257203, 30.010831], [116.252493, 29.999645], [116.24896, 29.983455], [116.254259, 29.983749], [116.264562, 29.983161], [116.269566, 29.983455], [116.265445, 29.961672], [116.266328, 29.941655], [116.263384, 29.927526], [116.246017, 29.921933], [116.233065, 29.915163], [116.218052, 29.901622], [116.200685, 29.89338], [116.180962, 29.901622], [116.158885, 29.893674], [116.11738, 29.90486], [116.091476, 29.901622], [116.051148, 29.871597], [116.040256, 29.866887], [116.029365, 29.870125], [116.001989, 29.893968], [115.997573, 29.904565], [115.995807, 29.915457], [115.995807, 29.939006], [115.992275, 29.953136], [115.983444, 29.9602], [115.961661, 29.969914], [115.954302, 29.983455], [115.949003, 29.986399], [115.942233, 29.989048], [115.936346, 29.993169], [115.933991, 30.000528], [115.933991, 30.044977], [115.939878, 30.035557], [115.97373, 29.996701], [115.981678, 29.993463], [115.985799, 29.987576], [115.995807, 29.983455], [116.007288, 29.983455], [116.016413, 29.989637], [116.014941, 29.996113], [115.999634, 30.011714], [115.995807, 30.021134], [115.996396, 30.031436], [115.998751, 30.038795], [116.003755, 30.043505], [116.01288, 30.044977], [116.021123, 30.041739], [116.024655, 30.03438], [116.026421, 30.025255], [116.029954, 30.017601], [116.054091, 29.993758], [116.057329, 29.986693], [116.061156, 29.973741], [116.070576, 29.969914], [116.081467, 29.973741], [116.091476, 29.983455], [116.077052, 29.988459], [116.071459, 29.989637], [116.085883, 29.996996], [116.092653, 29.991697], [116.097952, 29.981983], [116.108843, 29.976685], [116.13563, 29.977273], [116.148288, 29.979334], [116.160357, 29.983455], [116.152703, 29.996113], [116.143284, 29.99523], [116.132392, 29.989931], [116.11944, 29.989637], [116.10796, 29.996996], [116.113553, 30.002], [116.125328, 30.006121], [116.132981, 30.01142], [116.133275, 30.06205], [116.141223, 30.085011], [116.163889, 30.076474], [116.173309, 30.069998], [116.180962, 30.067643], [116.185967, 30.062639], [116.189793, 30.027315], [116.193031, 30.016129], [116.198035, 30.007887], [116.2051, 30.000823], [116.218052, 29.990814], [116.230416, 29.987576], [116.236008, 30.000528], [116.234242, 30.01348], [116.228944, 30.023194], [116.222468, 30.032614], [116.215697, 30.044977], [116.247194, 30.036441], [116.257203, 30.010831]]]}}, {"type": "Feature", "properties": {"featurecla": "Lake", "scalerank": 4, "name": "Liangzi Hu", "name_abb": "Liangzi Hu", "name_alt": null, "note": null, "delta": null, "dam_name": null, "year": -99, "admin": null, "min_zoom": 4, "min_label": 5, "label": "Liangzi Hu", "wikidataid": "Q7374197", "name_ar": "بحيرة ليانغزي", "name_bn": "লিয়াংজি হু", "name_de": "Liangzi-See", "name_en": "Liangzi", "name_es": "Liangzi Hu", "name_fr": "Lac Liangzi", "name_el": "Λιανγκζί Χου", "name_hi": "लिआंगज़ी हु", "name_hu": "Liangzi Hu", "name_id": "Liangzi", "name_it": "Liangzi Hu", "name_ja": "梁子湖", "name_ko": "량지 후", "name_nl": "Liangzi Lake", "name_pl": "Jezioro Liangzi", "name_pt": "Lago Liangzi", "name_ru": "озеро Лянцзыху", "name_sv": "Liangzi Hu", "name_tr": "Liangzi Hu", "name_vi": "Hồ Lương Tử", "name_zh": "梁子湖", "ne_id": 1159114069, "name_fa": "لیانگزی هو", "name_he": "אגם ליאנגזי", "name_uk": "Ліангці", "name_ur": "لیانگزی ہو", "name_zht": "梁子湖"}, "bbox": [114.330589, 30.061756, 114.653507, 30.375548], "geometry": {"type": "Polygon", "coordinates": [[[114.382692, 30.182151], [114.366796, 30.188627], [114.345602, 30.191276], [114.330589, 30.188921], [114.334711, 30.202756], [114.342953, 30.208349], [114.351784, 30.212765], [114.357965, 30.223656], [114.364736, 30.223656], [114.373272, 30.207466], [114.383281, 30.205994], [114.3927, 30.214825], [114.399471, 30.229838], [114.412423, 30.223656], [114.412423, 30.229838], [114.406241, 30.236314], [114.401531, 30.242495], [114.39535, 30.247794], [114.385636, 30.250443], [114.391228, 30.263395], [114.389462, 30.274876], [114.382692, 30.28459], [114.371506, 30.29136], [114.41154, 30.270166], [114.428613, 30.264278], [114.440387, 30.271343], [114.447452, 30.267811], [114.453339, 30.266339], [114.467469, 30.264867], [114.467469, 30.271343], [114.453928, 30.27517], [114.443037, 30.282823], [114.435972, 30.29342], [114.433617, 30.305784], [114.447158, 30.29136], [114.453928, 30.298719], [114.485719, 30.282529], [114.501615, 30.278702], [114.515156, 30.299602], [114.546064, 30.294304], [114.556367, 30.305784], [114.542826, 30.306961], [114.527225, 30.310494], [114.513978, 30.315792], [114.502498, 30.329922], [114.487486, 30.330216], [114.453928, 30.326095], [114.44127, 30.328155], [114.429496, 30.334043], [114.421254, 30.342579], [114.419782, 30.354059], [114.42773, 30.366128], [114.438327, 30.366423], [114.448335, 30.358475], [114.453928, 30.3467], [114.458049, 30.369955], [114.46011, 30.374665], [114.464525, 30.372899], [114.47159, 30.368778], [114.47836, 30.366717], [114.481598, 30.371133], [114.485131, 30.374665], [114.494256, 30.375548], [114.522809, 30.374371], [114.526636, 30.372604], [114.529285, 30.368483], [114.536056, 30.360241], [114.538116, 30.354648], [114.539294, 30.339636], [114.543415, 30.332277], [114.594045, 30.322857], [114.608764, 30.315203], [114.631724, 30.298719], [114.631724, 30.29136], [114.613179, 30.285767], [114.604348, 30.278408], [114.604642, 30.268105], [114.614651, 30.25427], [114.632313, 30.238374], [114.639083, 30.229838], [114.643793, 30.221596], [114.652624, 30.195692], [114.627014, 30.210704], [114.613179, 30.215414], [114.597578, 30.216297], [114.597578, 30.209527], [114.617006, 30.200696], [114.62201, 30.158013], [114.635256, 30.148005], [114.643793, 30.140057], [114.650269, 30.121217], [114.653507, 30.098551], [114.652624, 30.079712], [114.643204, 30.061756], [114.631724, 30.064405], [114.62201, 30.078829], [114.612885, 30.113858], [114.577561, 30.17538], [114.548713, 30.134758], [114.537822, 30.133875], [114.529874, 30.16184], [114.531346, 30.168904], [114.540177, 30.187449], [114.543415, 30.195692], [114.546358, 30.219829], [114.550185, 30.229838], [114.529285, 30.226894], [114.515744, 30.218652], [114.504559, 30.213648], [114.491901, 30.220124], [114.472767, 30.232487], [114.471295, 30.219535], [114.481598, 30.185389], [114.476888, 30.119451], [114.464819, 30.087954], [114.440976, 30.068526], [114.440976, 30.069409], [114.440387, 30.072942], [114.422137, 30.082067], [114.440093, 30.114741], [114.426258, 30.12681], [114.438915, 30.140351], [114.439504, 30.158602], [114.42979, 30.173026], [114.412423, 30.17538], [114.401531, 30.165078], [114.371506, 30.107088], [114.364736, 30.107088], [114.367385, 30.113564], [114.367091, 30.118274], [114.365619, 30.122395], [114.364736, 30.12681], [114.364736, 30.120629], [114.36032, 30.134464], [114.362381, 30.147121], [114.36974, 30.159485], [114.382103, 30.171848], [114.382692, 30.182151]]]}}, {"type": "Feature", "properties": {"featurecla": "Lake", "scalerank": 5, "name": "Po Hu", "name_abb": "Po Hu", "name_alt": null, "note": null, "delta": null, "dam_name": null, "year": -99, "admin": null, "min_zoom": 4.7, "min_label": 6, "label": null, "wikidataid": null, "name_ar": "بحيرة بو", "name_bn": "পো হু", "name_de": "Pohu Lake", "name_en": "Poyang Lake", "name_es": "Po Hu", "name_fr": "Pohu", "name_el": "Πο Χου", "name_hi": "पो हु", "name_hu": "Po Hu", "name_id": "Po Hu", "name_it": "Po Hu", "name_ja": "泊湖", "name_ko": "포 후", "name_nl": "Pohu Lake", "name_pl": "Jezioro Po", "name_pt": "Lago Po", "name_ru": "озеро Боху", "name_sv": "Po Hu", "name_tr": "Po Hu", "name_vi": "Bạc Hồ", "name_zh": "鄱湖", "ne_id": 1159114699, "name_fa": "پو هو", "name_he": "אגם פה", "name_uk": "По ху", "name_ur": "پو ہو", "name_zht": "鄱湖"}, "bbox": [116.296942, 30.066171, 116.555394, 30.271343], "geometry": {"type": "Polygon", "coordinates": [[[116.444124, 30.101201], [116.454721, 30.117391], [116.445596, 30.124161], [116.425579, 30.115036], [116.393199, 30.093547], [116.393199, 30.099435], [116.398497, 30.10856], [116.394082, 30.11327], [116.384074, 30.112975], [116.396437, 30.122984], [116.40674, 30.12681], [116.40674, 30.134464], [116.394376, 30.137113], [116.383779, 30.141234], [116.374654, 30.147121], [116.365823, 30.154775], [116.370238, 30.155364], [116.373182, 30.15713], [116.375831, 30.15919], [116.379658, 30.16184], [116.393199, 30.154775], [116.384662, 30.168021], [116.371122, 30.17538], [116.354932, 30.175675], [116.338447, 30.16861], [116.319608, 30.177441], [116.317547, 30.182151], [116.317253, 30.192454], [116.321668, 30.214531], [116.316075, 30.223656], [116.296942, 30.223656], [116.31166, 30.235431], [116.325789, 30.240729], [116.33727, 30.237491], [116.344629, 30.223656], [116.351399, 30.229838], [116.348161, 30.235431], [116.346689, 30.239552], [116.344629, 30.250443], [116.359053, 30.244262], [116.358464, 30.255153], [116.360524, 30.261629], [116.365234, 30.266339], [116.372593, 30.271343], [116.369061, 30.223656], [116.377892, 30.219535], [116.387606, 30.212176], [116.39732, 30.210704], [116.40674, 30.223656], [116.411744, 30.21041], [116.413216, 30.194514], [116.418809, 30.181268], [116.434704, 30.17538], [116.432938, 30.193337], [116.430877, 30.201284], [116.427345, 30.209527], [116.436176, 30.204817], [116.445596, 30.203934], [116.454427, 30.203934], [116.461197, 30.203345], [116.46002, 30.205406], [116.464435, 30.207761], [116.470911, 30.209232], [116.475621, 30.209527], [116.476504, 30.199224], [116.478859, 30.192159], [116.485629, 30.188921], [116.50388, 30.195692], [116.527135, 30.226894], [116.543325, 30.236608], [116.542736, 30.220418], [116.536849, 30.183034], [116.530961, 30.16861], [116.535671, 30.165372], [116.538026, 30.162428], [116.540087, 30.158896], [116.543325, 30.154775], [116.532727, 30.153892], [116.519481, 30.150065], [116.508295, 30.144472], [116.503585, 30.137407], [116.506529, 30.125044], [116.514183, 30.122689], [116.52478, 30.123867], [116.537143, 30.120629], [116.549801, 30.111209], [116.555394, 30.102378], [116.551272, 30.095902], [116.533905, 30.093547], [116.52007, 30.08972], [116.495932, 30.072059], [116.482391, 30.066171], [116.48298, 30.076474], [116.486807, 30.084716], [116.493577, 30.090604], [116.503585, 30.093547], [116.503585, 30.099435], [116.4924, 30.100318], [116.481508, 30.099729], [116.470911, 30.097668], [116.461197, 30.093547], [116.444124, 30.101201]]]}}, {"type": "Feature", "properties": {"featurecla": "Lake", "scalerank": 5, "name": "Hong Hu", "name_abb": "Hong Hu", "name_alt": null, "note": null, "delta": null, "dam_name": null, "year": -99, "admin": null, "min_zoom": 4.7, "min_label": 6, "label": "Hong Hu", "wikidataid": "Q5895614", "name_ar": "بحيرة هونغ", "name_bn": "হং হু", "name_de": "Hong Hu", "name_en": "Hong", "name_es": "Hong Hu", "name_fr": "Hong", "name_el": "Χονγκ Χου", "name_hi": "हांग हु", "name_hu": "Hong Hu", "name_id": "Danau Hong", "name_it": "Hong Hu", "name_ja": "洪湖", "name_ko": "홍 후", "name_nl": "Hong Lake", "name_pl": "Hong Hu", "name_pt": "Lago Hong", "name_ru": "озеро Хонгху", "name_sv": "Hong Hu", "name_tr": "Hong Hu", "name_vi": "Hồng Hồ", "name_zh": "洪湖", "ne_id": 1159115027, "name_fa": "هونگ هو", "name_he": "אגם הונג", "name_uk": "Хонгху", "name_ur": "ہونگ ہو", "name_zht": "洪湖"}, "bbox": [113.218187, 29.736484, 113.466336, 29.963144], "geometry": {"type": "Polygon", "coordinates": [[[113.436311, 29.949014], [113.453384, 29.956079], [113.466336, 29.931353], [113.461921, 29.899856], [113.445731, 29.872185], [113.42277, 29.860705], [113.415706, 29.859528], [113.409524, 29.854524], [113.39039, 29.851286], [113.38833, 29.846281], [113.390685, 29.839805], [113.394512, 29.815079], [113.392157, 29.803304], [113.368607, 29.79153], [113.356244, 29.763271], [113.347413, 29.757089], [113.339465, 29.753851], [113.327396, 29.739722], [113.320037, 29.736484], [113.279415, 29.760621], [113.273822, 29.767392], [113.275294, 29.788292], [113.269995, 29.799772], [113.246152, 29.810663], [113.241148, 29.82597], [113.231139, 29.839805], [113.22172, 29.861294], [113.218187, 29.886021], [113.227018, 29.907803], [113.245563, 29.916634], [113.271173, 29.91634], [113.295311, 29.906626], [113.30944, 29.887492], [113.2959, 29.887492], [113.305614, 29.87454], [113.335344, 29.861294], [113.343587, 29.846281], [113.35124, 29.846281], [113.357127, 29.866887], [113.342409, 29.870125], [113.337699, 29.880722], [113.340937, 29.894557], [113.35124, 29.907803], [113.345647, 29.925171], [113.353301, 29.943127], [113.368019, 29.957257], [113.381559, 29.963144], [113.402165, 29.959317], [113.419532, 29.952252], [113.436311, 29.949014]]]}}, {"type": "Feature", "properties": {"featurecla": "Lake", "scalerank": 5, "name": null, "name_abb": null, "name_alt": null, "note": "_untitled_10", "delta": null, "dam_name": null, "year": -99, "admin": null, "min_zoom": 4.7, "min_label": 6, "label": null, "wikidataid": null, "name_ar": null, "name_bn": null, "name_de": null, "name_en": null, "name_es": null, "name_fr": null, "name_el": null, "name_hi": null, "name_hu": null, "name_id": null, "name_it": null, "name_ja": null, "name_ko": null, "name_nl": null, "name_pl": null, "name_pt": null, "name_ru": null, "name_sv": null, "name_tr": null, "name_vi": null, "name_zh": null, "ne_id": 1159115135, "name_fa": null, "name_he": null, "name_uk": null, "name_ur": null, "name_zht": null}, "bbox": [114.649091, 30.195692, 114.859267, 30.360241], "geometry": {"type": "Polygon", "coordinates": [[[114.853674, 30.313732], [114.857501, 30.313143], [114.859267, 30.301074], [114.849259, 30.297542], [114.838368, 30.291654], [114.837779, 30.271343], [114.830714, 30.271343], [114.830125, 30.280174], [114.82777, 30.284295], [114.822178, 30.285178], [114.813641, 30.285178], [114.806282, 30.286944], [114.798334, 30.29136], [114.793919, 30.295775], [114.796568, 30.298719], [114.785088, 30.292537], [114.783027, 30.282529], [114.788031, 30.272226], [114.796568, 30.264867], [114.781555, 30.258097], [114.776257, 30.266045], [114.773019, 30.278702], [114.765365, 30.285178], [114.750353, 30.289594], [114.733574, 30.309316], [114.720916, 30.313143], [114.739756, 30.27988], [114.741816, 30.265456], [114.734751, 30.244262], [114.752708, 30.243967], [114.763893, 30.238374], [114.774196, 30.230132], [114.789209, 30.223656], [114.789209, 30.216297], [114.775668, 30.209527], [114.772724, 30.214237], [114.766543, 30.218652], [114.761833, 30.223656], [114.755063, 30.209527], [114.753885, 30.214237], [114.748881, 30.223656], [114.739756, 30.219535], [114.732985, 30.213648], [114.728864, 30.2057], [114.727687, 30.195692], [114.70973, 30.205111], [114.679411, 30.233076], [114.665576, 30.229838], [114.657334, 30.236608], [114.650269, 30.241024], [114.649091, 30.253681], [114.663221, 30.258685], [114.683238, 30.260746], [114.700605, 30.264867], [114.700605, 30.271343], [114.673229, 30.271343], [114.673229, 30.277819], [114.676762, 30.280763], [114.68206, 30.287239], [114.68677, 30.29136], [114.679411, 30.298719], [114.662338, 30.29136], [114.662043, 30.301663], [114.668814, 30.313143], [114.673229, 30.309316], [114.707376, 30.317853], [114.717384, 30.322563], [114.739461, 30.354059], [114.748881, 30.360241], [114.750058, 30.355531], [114.759184, 30.346112], [114.771547, 30.336986], [114.783027, 30.332277], [114.778023, 30.346406], [114.785088, 30.352882], [114.797745, 30.350821], [114.809814, 30.339636], [114.821883, 30.345817], [114.82571, 30.341402], [114.826887, 30.332865], [114.830714, 30.326095], [114.853674, 30.313732]]]}}, {"type": "Feature", "properties": {"featurecla": "Lake", "scalerank": 5, "name": "Huangtang Hu", "name_abb": "Huangtang Hu", "name_alt": null, "note": null, "delta": null, "dam_name": null, "year": -99, "admin": null, "min_zoom": 4.7, "min_label": 6, "label": null, "wikidataid": null, "name_ar": "بحيرة هوانغتانغ", "name_bn": "হুয়াংতাং হু", "name_de": "Huangtang Hu", "name_en": "Futou Lake", "name_es": "Huangtang Hu", "name_fr": "Huangtanghu", "name_el": "Χουανγκτάνγκ Χου", "name_hi": "हुआंगतांग हु", "name_hu": "Huangtang Hu", "name_id": "Danau Huangtang", "name_it": "Huangtang Hu", "name_ja": "黄塘湖", "name_ko": "황탕 후", "name_nl": "Huangtang Lake", "name_pl": "Jezioro Huangtang", "name_pt": "Lago Huangtang", "name_ru": "озеро Чуантан", "name_sv": "Huangtang Hu", "name_tr": "Huangtang Hu", "name_vi": "Hồ Phủ Đầu", "name_zh": "黄塘湖", "ne_id": 1159115205, "name_fa": "هوآنگتانگ هو", "name_he": "הואנגטנג", "name_uk": "Хуангтангху", "name_ur": "ہوانگٹانگ ہو", "name_zht": "黃塘湖"}, "bbox": [114.137192, 29.890436, 114.309984, 30.154481], "geometry": {"type": "Polygon", "coordinates": [[[114.294088, 30.033791], [114.305274, 30.036441], [114.309984, 30.038207], [114.30969, 30.024666], [114.306452, 30.012303], [114.302036, 30.004061], [114.296443, 30.004061], [114.28879, 29.989342], [114.275543, 29.983749], [114.241691, 29.983455], [114.246401, 29.975507], [114.244929, 29.968442], [114.238159, 29.965499], [114.227562, 29.969914], [114.201364, 29.951958], [114.218142, 29.940478], [114.2517, 29.931353], [114.275838, 29.921933], [114.265829, 29.904565], [114.25641, 29.893968], [114.242869, 29.890436], [114.220792, 29.893968], [114.199597, 29.900739], [114.179581, 29.90957], [114.162802, 29.92105], [114.15191, 29.935179], [114.158681, 29.928998], [114.147201, 29.953136], [114.140136, 29.980511], [114.137192, 30.008182], [114.138075, 30.032025], [114.139841, 30.031436], [114.143963, 30.03438], [114.148672, 30.039384], [114.15191, 30.044977], [114.151616, 30.049393], [114.147201, 30.059401], [114.145729, 30.066171], [114.145434, 30.092958], [114.147495, 30.104733], [114.15191, 30.113858], [114.158681, 30.099435], [114.177814, 30.122689], [114.201658, 30.144767], [114.229623, 30.154481], [114.261708, 30.140645], [114.249934, 30.126516], [114.234627, 30.116213], [114.22403, 30.102673], [114.227562, 30.079712], [114.243163, 30.075297], [114.248756, 30.052336], [114.250817, 30.034674], [114.255527, 30.044977], [114.25641, 30.039384], [114.261708, 30.024372], [114.270834, 30.030553], [114.278193, 30.038501], [114.28408, 30.047921], [114.289673, 30.058812], [114.2935, 30.050276], [114.294971, 30.045272], [114.294088, 30.040562], [114.289673, 30.032025], [114.294088, 30.033791]]]}}, {"type": "Feature", "properties": {"featurecla": "Lake", "scalerank": 5, "name": null, "name_abb": null, "name_alt": null, "note": "_untitled_7", "delta": null, "dam_name": null, "year": -99, "admin": null, "min_zoom": 4.7, "min_label": 6, "label": null, "wikidataid": null, "name_ar": null, "name_bn": null, "name_de": null, "name_en": null, "name_es": null, "name_fr": null, "name_el": null, "name_hi": null, "name_hu": null, "name_id": null, "name_it": null, "name_ja": null, "name_ko": null, "name_nl": null, "name_pl": null, "name_pt": null, "name_ru": null, "name_sv": null, "name_tr": null, "name_vi": null, "name_zh": null, "ne_id": 1159115225, "name_fa": null, "name_he": null, "name_uk": null, "name_ur": null, "name_zht": null}, "bbox": [113.926427, 29.846281, 114.165746, 30.035852], "geometry": {"type": "Polygon", "coordinates": [[[114.131305, 29.926937], [114.157798, 29.886904], [114.165746, 29.861588], [114.160741, 29.85158], [114.138075, 29.873657], [114.135132, 29.863354], [114.130716, 29.855701], [114.125123, 29.849814], [114.117764, 29.846281], [114.11276, 29.858939], [114.113054, 29.869242], [114.115998, 29.87925], [114.117764, 29.89073], [114.115998, 29.905743], [114.111583, 29.911336], [114.105107, 29.914279], [114.097159, 29.921933], [114.084795, 29.95549], [114.075081, 29.969914], [114.056242, 29.976685], [114.069194, 29.951075], [114.070077, 29.934296], [114.060658, 29.921639], [114.042113, 29.907803], [114.039463, 29.903094], [114.040641, 29.898678], [114.039758, 29.89544], [114.032104, 29.893968], [114.026511, 29.892202], [114.014148, 29.883077], [114.008261, 29.879839], [113.998252, 29.878367], [113.989421, 29.878661], [113.980002, 29.876306], [113.967933, 29.866887], [113.964106, 29.871597], [113.961751, 29.877484], [113.960574, 29.884843], [113.960574, 29.887492], [113.959102, 29.891025], [113.958808, 29.894557], [113.957336, 29.898089], [113.953803, 29.901622], [113.988538, 29.910747], [114.002962, 29.916929], [114.015031, 29.928998], [114.000019, 29.969914], [113.992071, 29.976685], [113.976764, 29.972269], [113.960279, 29.952841], [113.947033, 29.94872], [113.949094, 29.95343], [113.953803, 29.969914], [113.940557, 29.970503], [113.932904, 29.976979], [113.929077, 29.986987], [113.926427, 29.99729], [113.938202, 29.991697], [113.954981, 29.987282], [113.985006, 29.983455], [113.99001, 29.986104], [113.995897, 29.991697], [114.000313, 29.997585], [114.002079, 30.000528], [114.006495, 30.005827], [114.015325, 30.001411], [114.024745, 29.993758], [114.028277, 29.989637], [114.039463, 29.996701], [114.058597, 30.019662], [114.06625, 30.024372], [114.088328, 30.034674], [114.098042, 30.035852], [114.090388, 30.024372], [114.099514, 30.009948], [114.117764, 29.99052], [114.12424, 29.976685], [114.127773, 29.958728], [114.128067, 29.942538], [114.131305, 29.926937]]]}}, {"type": "Feature", "properties": {"featurecla": "Lake", "scalerank": 7, "name": null, "name_abb": null, "name_alt": null, "note": "_untitled_88", "delta": null, "dam_name": null, "year": -99, "admin": null, "min_zoom": 5.7, "min_label": 6.7, "label": null, "wikidataid": null, "name_ar": null, "name_bn": null, "name_de": null, "name_en": null, "name_es": null, "name_fr": null, "name_el": null, "name_hi": null, "name_hu": null, "name_id": null, "name_it": null, "name_ja": null, "name_ko": null, "name_nl": null, "name_pl": null, "name_pt": null, "name_ru": null, "name_sv": null, "name_tr": null, "name_vi": null, "name_zh": null, "ne_id": 1159116521, "name_fa": null, "name_he": null, "name_uk": null, "name_ur": null, "name_zht": null}, "bbox": [114.892825, 30.06676, 115.220452, 30.146238], "geometry": {"type": "Polygon", "coordinates": [[[115.176592, 30.146238], [115.2075, 30.137996], [115.220452, 30.107088], [115.214271, 30.108265], [115.190721, 30.109443], [115.181007, 30.107088], [115.17306, 30.100318], [115.161874, 30.082067], [115.153043, 30.072942], [115.136558, 30.067054], [115.11507, 30.06676], [115.095642, 30.070881], [115.08475, 30.079712], [115.072976, 30.072942], [115.0665, 30.075591], [115.060318, 30.082361], [115.050604, 30.086482], [115.041479, 30.086188], [115.009099, 30.079712], [115.005272, 30.08089], [114.994381, 30.085894], [114.988493, 30.086482], [114.983195, 30.084128], [114.974069, 30.075002], [114.967593, 30.072942], [114.943161, 30.084128], [114.933153, 30.086482], [114.919023, 30.085011], [114.905188, 30.087071], [114.895474, 30.093842], [114.892825, 30.107088], [114.898418, 30.112681], [114.908721, 30.117391], [114.917846, 30.125044], [114.919612, 30.140645], [114.947577, 30.140645], [114.947282, 30.117391], [114.954936, 30.108854], [114.965827, 30.114741], [114.974953, 30.134464], [114.977896, 30.128871], [114.98555, 30.119157], [114.988493, 30.113858], [115.012925, 30.135347], [115.046483, 30.137996], [115.081512, 30.133581], [115.112126, 30.134464], [115.14068, 30.141823], [115.176592, 30.146238]]]}}, {"type": "Feature", "properties": {"featurecla": "Lake", "scalerank": 8, "name": null, "name_abb": null, "name_alt": null, "note": "_untitled_10", "delta": null, "dam_name": null, "year": -99, "admin": null, "min_zoom": 6, "min_label": 7, "label": null, "wikidataid": null, "name_ar": null, "name_bn": null, "name_de": null, "name_en": null, "name_es": null, "name_fr": null, "name_el": null, "name_hi": null, "name_hu": null, "name_id": null, "name_it": null, "name_ja": null, "name_ko": null, "name_nl": null, "name_pl": null, "name_pt": null, "name_ru": null, "name_sv": null, "name_tr": null, "name_vi": null, "name_zh": null, "ne_id": 1159117663, "name_fa": null, "name_he": null, "name_uk": null, "name_ur": null, "name_zht": null}, "bbox": [116.269566, 28.403603, 116.461197, 28.626731], "geometry": {"type": "Polygon", "coordinates": [[[116.280163, 28.566386], [116.277219, 28.563442], [116.269566, 28.55785], [116.271626, 28.604948], [116.27928, 28.620549], [116.30018, 28.626731], [116.326084, 28.621727], [116.336092, 28.607597], [116.338447, 28.55785], [116.344923, 28.560499], [116.351399, 28.565209], [116.35817, 28.558144], [116.365823, 28.551668], [116.369061, 28.563442], [116.37436, 28.57139], [116.382013, 28.578161], [116.393199, 28.585225], [116.388489, 28.565209], [116.386134, 28.544014], [116.393199, 28.544014], [116.410272, 28.553434], [116.434704, 28.5343], [116.45531, 28.501332], [116.461197, 28.468952], [116.449422, 28.47219], [116.442358, 28.479254], [116.439414, 28.489851], [116.440886, 28.503098], [116.43647, 28.501332], [116.425285, 28.498388], [116.420869, 28.496327], [116.417042, 28.513401], [116.404679, 28.522526], [116.388195, 28.523703], [116.372593, 28.516933], [116.352282, 28.530179], [116.342863, 28.521348], [116.342568, 28.505158], [116.347867, 28.496327], [116.36023, 28.494267], [116.377598, 28.488085], [116.389667, 28.477194], [116.386134, 28.462181], [116.372299, 28.467774], [116.359347, 28.464536], [116.349339, 28.455116], [116.344629, 28.441576], [116.347278, 28.429801], [116.354932, 28.419793], [116.364646, 28.412139], [116.372593, 28.406841], [116.362879, 28.403897], [116.353165, 28.403603], [116.331088, 28.406841], [116.331088, 28.414494], [116.313721, 28.421265], [116.314898, 28.435688], [116.331088, 28.462181], [116.314309, 28.464242], [116.30018, 28.46954], [116.289583, 28.479549], [116.283107, 28.496327], [116.280457, 28.492206], [116.276336, 28.489557], [116.27251, 28.508102], [116.275748, 28.528413], [116.289288, 28.571979], [116.283107, 28.571979], [116.280163, 28.566386]]]}}, {"type": "Feature", "properties": {"featurecla": "Lake", "scalerank": 8, "name": null, "name_abb": null, "name_alt": null, "note": "_untitled_9", "delta": null, "dam_name": null, "year": -99, "admin": null, "min_zoom": 6, "min_label": 7, "label": null, "wikidataid": null, "name_ar": null, "name_bn": null, "name_de": null, "name_en": null, "name_es": null, "name_fr": null, "name_el": null, "name_hi": null, "name_hu": null, "name_id": null, "name_it": null, "name_ja": null, "name_ko": null, "name_nl": null, "name_pl": null, "name_pt": null, "name_ru": null, "name_sv": null, "name_tr": null, "name_vi": null, "name_zh": null, "ne_id": 1159117685, "name_fa": null, "name_he": null, "name_uk": null, "name_ur": null, "name_zht": null}, "bbox": [116.091181, 28.400659, 116.24896, 28.592585], "geometry": {"type": "Polygon", "coordinates": [[[116.107077, 28.451584], [116.130332, 28.500743], [116.132981, 28.523703], [116.12209, 28.535478], [116.109432, 28.522232], [116.097952, 28.497211], [116.091476, 28.475133], [116.091181, 28.501332], [116.094419, 28.528413], [116.105605, 28.549313], [116.129743, 28.55785], [116.147699, 28.561088], [116.169482, 28.56933], [116.190676, 28.580516], [116.208044, 28.592585], [116.216286, 28.582871], [116.226, 28.579927], [116.235714, 28.578161], [116.243073, 28.571979], [116.244839, 28.561971], [116.243073, 28.523703], [116.219524, 28.548724], [116.202451, 28.560793], [116.194503, 28.554612], [116.189793, 28.544014], [116.167127, 28.531062], [116.160357, 28.523703], [116.160651, 28.512812], [116.171248, 28.49515], [116.194503, 28.434805], [116.201568, 28.43245], [116.23277, 28.434805], [116.235714, 28.43039], [116.24896, 28.400659], [116.231299, 28.402131], [116.215697, 28.408901], [116.201273, 28.413317], [116.187733, 28.406841], [116.154175, 28.454822], [116.145933, 28.462181], [116.12886, 28.45806], [116.129449, 28.443048], [116.136808, 28.423914], [116.139751, 28.406841], [116.133275, 28.413611], [116.11738, 28.42568], [116.112081, 28.428624], [116.107077, 28.451584]]]}}, {"type": "Feature", "properties": {"featurecla": "Lake", "scalerank": 8, "name": null, "name_abb": null, "name_alt": null, "note": "_untitled_6", "delta": null, "dam_name": null, "year": -99, "admin": null, "min_zoom": 6, "min_label": 7, "label": null, "wikidataid": null, "name_ar": null, "name_bn": null, "name_de": null, "name_en": null, "name_es": null, "name_fr": null, "name_el": null, "name_hi": null, "name_hu": null, "name_id": null, "name_it": null, "name_ja": null, "name_ko": null, "name_nl": null, "name_pl": null, "name_pt": null, "name_ru": null, "name_sv": null, "name_tr": null, "name_vi": null, "name_zh": null, "ne_id": 1159117733, "name_fa": null, "name_he": null, "name_uk": null, "name_ur": null, "name_zht": null}, "bbox": [114.111288, 30.173026, 114.261708, 30.322857], "geometry": {"type": "Polygon", "coordinates": [[[114.172222, 30.177147], [114.132482, 30.188921], [114.111288, 30.208349], [114.115409, 30.225717], [114.126595, 30.234842], [114.158681, 30.250443], [114.160741, 30.254859], [114.176048, 30.277819], [114.179581, 30.281352], [114.181641, 30.286944], [114.19371, 30.306078], [114.200186, 30.313143], [114.219909, 30.322857], [114.226679, 30.317558], [114.225501, 30.30284], [114.220792, 30.285178], [114.216671, 30.278702], [114.210783, 30.271049], [114.206957, 30.262512], [114.210195, 30.25427], [114.219614, 30.247205], [114.228151, 30.243673], [114.23551, 30.239257], [114.241691, 30.229838], [114.227562, 30.229838], [114.227562, 30.223656], [114.235804, 30.224245], [114.253172, 30.223067], [114.261708, 30.223656], [114.261708, 30.216297], [114.244341, 30.20099], [114.234038, 30.195986], [114.220792, 30.195692], [114.220792, 30.188921], [114.229328, 30.187155], [114.232566, 30.185094], [114.23551, 30.181562], [114.241691, 30.17538], [114.214021, 30.173026], [114.172222, 30.177147]]]}}, {"type": "Feature", "properties": {"featurecla": "Lake", "scalerank": 9, "name": "Wuchang Hu", "name_abb": "Wuchang Hu", "name_alt": null, "note": null, "delta": null, "dam_name": null, "year": -99, "admin": null, "min_zoom": 7, "min_label": 8, "label": "Wuchang Hu", "wikidataid": "Q11124334", "name_ar": "ووتشانغ هو", "name_bn": "উচাং হু", "name_de": "Wuchang Lake", "name_en": "Wuchang", "name_es": "Wuchang Hu", "name_fr": "Lac de Wuchang", "name_el": "Βουτσάνγκ Χου", "name_hi": "वुचांग हु", "name_hu": "Wuchang Hu", "name_id": "Danau Wuchang", "name_it": "Wuchang Hu", "name_ja": "武昌湖", "name_ko": "우창 후", "name_nl": "Wuchang Lake", "name_pl": "Jezioro Wuchang", "name_pt": "Lago Wuchang", "name_ru": "озеро Учан", "name_sv": "Wuchang Hu", "name_tr": "Wuchang Hu", "name_vi": "Hồ Vũ Xương", "name_zh": "武昌湖", "ne_id": 1159118831, "name_fa": "ووچانگ هو", "name_he": "אגם ווצ'אנג", "name_uk": "Вучангху", "name_ur": "ووچانگ ہو", "name_zht": "武昌湖"}, "bbox": [116.545974, 30.229838, 116.840927, 30.339636], "geometry": {"type": "Polygon", "coordinates": [[[116.821204, 30.313143], [116.825031, 30.311082], [116.840927, 30.285473], [116.839161, 30.281352], [116.834451, 30.27723], [116.832096, 30.268105], [116.82562, 30.25898], [116.812079, 30.26104], [116.790885, 30.271343], [116.774695, 30.271049], [116.763803, 30.2684], [116.743198, 30.257802], [116.739665, 30.255447], [116.735839, 30.251326], [116.73054, 30.2475], [116.723475, 30.244262], [116.716411, 30.243379], [116.694628, 30.244262], [116.668724, 30.241907], [116.657244, 30.237786], [116.646941, 30.229838], [116.633989, 30.235431], [116.605141, 30.239552], [116.5916, 30.244262], [116.5916, 30.250443], [116.621331, 30.249266], [116.637815, 30.250443], [116.64959, 30.255447], [116.639876, 30.262218], [116.613383, 30.298719], [116.603964, 30.295481], [116.568051, 30.297542], [116.550684, 30.29136], [116.545974, 30.30078], [116.545974, 30.308433], [116.550095, 30.314909], [116.558043, 30.319325], [116.558043, 30.313143], [116.5707, 30.326095], [116.613972, 30.324623], [116.626335, 30.339636], [116.6334, 30.339636], [116.633989, 30.334926], [116.635755, 30.332277], [116.63811, 30.329922], [116.640759, 30.326095], [116.637815, 30.322563], [116.6334, 30.313143], [116.644291, 30.309022], [116.669312, 30.29607], [116.674317, 30.295187], [116.677849, 30.298425], [116.686386, 30.290182], [116.701398, 30.271343], [116.708463, 30.29136], [116.715233, 30.29136], [116.719943, 30.277525], [116.72583, 30.280763], [116.739665, 30.302251], [116.749379, 30.309905], [116.769102, 30.320502], [116.780876, 30.329333], [116.790296, 30.330805], [116.801776, 30.324917], [116.812668, 30.31697], [116.821204, 30.313143]]]}}, {"type": "Feature", "properties": {"featurecla": "Lake", "scalerank": 9, "name": null, "name_abb": null, "name_alt": null, "note": "_untitled_295", "delta": null, "dam_name": null, "year": -99, "admin": null, "min_zoom": 7, "min_label": 8, "label": null, "wikidataid": null, "name_ar": null, "name_bn": null, "name_de": null, "name_en": null, "name_es": null, "name_fr": null, "name_el": null, "name_hi": null, "name_hu": null, "name_id": null, "name_it": null, "name_ja": null, "name_ko": null, "name_nl": null, "name_pl": null, "name_pt": null, "name_ru": null, "name_sv": null, "name_tr": null, "name_vi": null, "name_zh": null, "ne_id": 1159118857, "name_fa": null, "name_he": null, "name_uk": null, "name_ur": null, "name_zht": null}, "bbox": [114.947577, 30.250443, 114.953758, 30.257802], "geometry": {"type": "Polygon", "coordinates": [[[114.953758, 30.250443], [114.947577, 30.257802], [114.949932, 30.256919], [114.951992, 30.253976], [114.952875, 30.252209], [114.953758, 30.250443]]]}}, {"type": "Feature", "properties": {"featurecla": "Lake", "scalerank": 9, "name": null, "name_abb": null, "name_alt": null, "note": "_untitled_294", "delta": null, "dam_name": null, "year": -99, "admin": null, "min_zoom": 7, "min_label": 8, "label": null, "wikidataid": null, "name_ar": null, "name_bn": null, "name_de": null, "name_en": null, "name_es": null, "name_fr": null, "name_el": null, "name_hi": null, "name_hu": null, "name_id": null, "name_it": null, "name_ja": null, "name_ko": null, "name_nl": null, "name_pl": null, "name_pt": null, "name_ru": null, "name_sv": null, "name_tr": null, "name_vi": null, "name_zh": null, "ne_id": 1159118887, "name_fa": null, "name_he": null, "name_uk": null, "name_ur": null, "name_zht": null}, "bbox": [114.919612, 30.245439, 115.048838, 30.380847], "geometry": {"type": "Polygon", "coordinates": [[[114.944044, 30.262218], [114.93698, 30.26575], [114.919612, 30.271343], [114.935213, 30.277525], [114.954641, 30.278997], [114.991731, 30.277819], [115.004683, 30.281646], [115.007038, 30.291949], [115.007627, 30.307256], [115.015575, 30.326095], [115.005566, 30.334926], [114.999385, 30.348761], [114.996441, 30.364951], [114.995264, 30.380847], [115.006449, 30.372604], [115.025878, 30.351116], [115.046777, 30.339636], [115.048838, 30.322857], [115.043245, 30.288416], [115.033531, 30.257214], [115.009982, 30.245439], [114.979368, 30.246911], [114.949932, 30.256919], [114.944044, 30.262218]]]}}, {"type": "Feature", "properties": {"featurecla": "Lake", "scalerank": 9, "name": null, "name_abb": null, "name_alt": null, "note": "_untitled_293", "delta": null, "dam_name": null, "year": -99, "admin": null, "min_zoom": 7, "min_label": 8, "label": null, "wikidataid": null, "name_ar": null, "name_bn": null, "name_de": null, "name_en": null, "name_es": null, "name_fr": null, "name_el": null, "name_hi": null, "name_hu": null, "name_id": null, "name_it": null, "name_ja": null, "name_ko": null, "name_nl": null, "name_pl": null, "name_pt": null, "name_ru": null, "name_sv": null, "name_tr": null, "name_vi": null, "name_zh": null, "ne_id": 1159118893, "name_fa": null, "name_he": null, "name_uk": null, "name_ur": null, "name_zht": null}, "bbox": [114.645265, 30.236608, 114.652624, 30.244262], "geometry": {"type": "Polygon", "coordinates": [[[114.645265, 30.244262], [114.646442, 30.243084], [114.650269, 30.241024], [114.652624, 30.236608], [114.645265, 30.244262]]]}}, {"type": "Feature", "properties": {"featurecla": "Lake", "scalerank": 9, "name": null, "name_abb": null, "name_alt": null, "note": "_untitled_285", "delta": null, "dam_name": null, "year": -99, "admin": null, "min_zoom": 7, "min_label": 8, "label": null, "wikidataid": null, "name_ar": null, "name_bn": null, "name_de": null, "name_en": null, "name_es": null, "name_fr": null, "name_el": null, "name_hi": null, "name_hu": null, "name_id": null, "name_it": null, "name_ja": null, "name_ko": null, "name_nl": null, "name_pl": null, "name_pt": null, "name_ru": null, "name_sv": null, "name_tr": null, "name_vi": null, "name_zh": null, "ne_id": 1159119079, "name_fa": null, "name_he": null, "name_uk": null, "name_ur": null, "name_zht": null}, "bbox": [114.110699, 30.204817, 114.111288, 30.209232], "geometry": {"type": "Polygon", "coordinates": [[[114.110994, 30.208938], [114.111288, 30.208349], [114.110699, 30.204817], [114.110699, 30.209232], [114.110994, 30.208938]]]}}, {"type": "Feature", "properties": {"featurecla": "Reservoir", "scalerank": 7, "name": "Xinanjiang Shuiku", "name_abb": "Xinanjiang Sk.", "name_alt": null, "note": null, "delta": null, "dam_name": null, "year": -99, "admin": null, "min_zoom": 5.7, "min_label": 6.7, "label": null, "wikidataid": null, "name_ar": "شينجيانغ شويكو", "name_bn": "জিনজিয়াং শুইকু", "name_de": "Qiandao-See", "name_en": "Qiandao Lake", "name_es": "Xinanjiang Shuiku", "name_fr": "Lac Qiandao", "name_el": "Ξινανγιάνγκ Σουικού", "name_hi": "ज़िनानजियांग शुइकु", "name_hu": "Hszincsiang Shuiku", "name_id": "Reservoir Sungai Xin’an", "name_it": "Xinanjiang Shuiku", "name_ja": "新安江ダム", "name_ko": "시난장 슈이쿠", "name_nl": "Xin'an River Reservoir", "name_pl": "Xinanjiang Shuiku", "name_pt": "Xinanjiang Shuiku", "name_ru": "водохранилище Синьаньцзян", "name_sv": "Xinanjiang Shuiku", "name_tr": "Xinanjiang Shuiku", "name_vi": "Hồ chứa Thuần An Giang", "name_zh": "新安江水库", "ne_id": 1159125639, "name_fa": "زینجیانگ شوئیکو", "name_he": "שינאנג'יאנג שויקו", "name_uk": "Сіндзян", "name_ur": "زنگجیانگ شوئیکو", "name_zht": "新安江水庫"}, "bbox": [118.626245, 29.403558, 119.195545, 29.812135], "geometry": {"type": "Polygon", "coordinates": [[[119.188775, 29.541026], [119.184065, 29.536022], [119.18171, 29.528074], [119.183182, 29.519832], [119.186714, 29.511589], [119.195545, 29.49746], [119.169347, 29.49952], [119.158455, 29.50217], [119.153157, 29.498343], [119.147858, 29.490101], [119.139911, 29.490689], [119.123426, 29.496282], [119.11018, 29.49746], [119.09399, 29.484802], [119.083981, 29.482153], [119.079566, 29.493927], [119.073384, 29.503347], [119.060138, 29.504525], [119.046008, 29.501287], [119.038355, 29.49746], [119.027169, 29.507468], [119.022459, 29.516888], [119.017455, 29.52513], [119.004503, 29.531606], [118.989196, 29.531312], [118.968296, 29.514827], [118.942687, 29.508057], [118.935916, 29.501875], [118.930029, 29.495105], [118.921787, 29.490101], [118.912956, 29.488335], [118.907069, 29.488335], [118.900593, 29.489512], [118.837304, 29.49275], [118.826118, 29.490101], [118.825235, 29.476854], [118.830828, 29.461547], [118.830828, 29.450067], [118.811989, 29.449184], [118.808457, 29.453894], [118.803158, 29.463314], [118.796093, 29.472733], [118.788145, 29.477149], [118.780492, 29.475677], [118.761358, 29.468907], [118.757237, 29.466257], [118.743402, 29.443886], [118.712788, 29.417982], [118.682174, 29.403558], [118.668045, 29.415038], [118.668045, 29.408268], [118.661863, 29.417687], [118.651855, 29.421808], [118.639492, 29.422397], [118.626245, 29.42122], [118.626245, 29.428579], [118.646851, 29.4327], [118.684235, 29.42122], [118.701897, 29.428579], [118.709845, 29.446829], [118.699836, 29.461547], [118.680408, 29.471556], [118.661569, 29.477149], [118.661569, 29.483919], [118.67511, 29.482742], [118.687179, 29.480387], [118.698364, 29.475971], [118.70955, 29.469495], [118.71426, 29.472145], [118.729861, 29.483919], [118.726329, 29.494516], [118.731628, 29.500992], [118.757237, 29.510706], [118.785202, 29.528662], [118.788145, 29.531606], [118.814638, 29.537788], [118.861736, 29.565752], [118.925025, 29.582531], [118.927085, 29.590773], [118.92738, 29.60608], [118.925908, 29.622859], [118.921787, 29.634045], [118.904419, 29.644348], [118.884402, 29.644053], [118.840542, 29.630218], [118.845252, 29.641993], [118.833772, 29.656711], [118.813755, 29.669663], [118.771661, 29.681437], [118.751056, 29.697039], [118.716321, 29.730302], [118.729273, 29.727653], [118.746346, 29.717939], [118.757237, 29.715878], [118.763713, 29.71941], [118.769012, 29.725592], [118.77696, 29.730891], [118.791383, 29.730302], [118.779314, 29.710285], [118.806102, 29.687913], [118.847901, 29.669369], [118.88087, 29.661421], [118.891467, 29.662304], [118.908835, 29.667602], [118.918843, 29.66878], [118.929735, 29.66407], [118.933561, 29.652884], [118.935033, 29.640226], [118.93886, 29.630807], [118.960643, 29.621976], [118.98272, 29.631396], [119.018044, 29.661421], [119.000088, 29.67084], [119.001854, 29.680554], [119.011862, 29.686736], [119.018044, 29.685264], [119.023931, 29.679083], [119.037766, 29.674373], [119.053662, 29.672607], [119.065142, 29.674961], [119.05896, 29.688502], [119.043653, 29.71264], [119.038355, 29.723532], [119.06367, 29.704987], [119.074856, 29.699394], [119.085748, 29.702337], [119.093107, 29.715878], [119.089574, 29.731479], [119.071912, 29.764448], [119.078683, 29.779461], [119.089574, 29.795062], [119.103409, 29.807425], [119.11695, 29.812135], [119.135789, 29.810075], [119.130197, 29.803304], [119.113418, 29.792707], [119.099288, 29.778578], [119.095756, 29.746198], [119.123721, 29.737367], [119.160222, 29.737367], [119.18171, 29.730302], [119.16817, 29.72677], [119.123426, 29.707047], [119.113418, 29.698805], [119.065142, 29.640815], [119.055428, 29.635811], [119.046008, 29.634339], [119.039532, 29.630807], [119.038355, 29.620504], [119.045125, 29.609613], [119.067203, 29.601959], [119.071912, 29.589007], [119.078683, 29.580765], [119.115478, 29.60137], [119.134023, 29.60608], [119.108119, 29.556627], [119.108708, 29.53926], [119.140794, 29.538376], [119.171702, 29.554272], [119.188186, 29.558688], [119.195545, 29.548385], [119.193485, 29.544558], [119.188775, 29.541026]]]}}]}