{"type": "FeatureCollection", "features": [{"type": "Feature", "properties": {"SCALERANK": 8, "NATSCALE": 10, "LABELRANK": 1, "FEATURECLA": "Populated place", "NAME": "Sanming", "NAMEPAR": null, "NAMEALT": null, "NAMEASCII": "Sanming", "ADM0CAP": 0, "CAPIN": null, "WORLDCITY": 0, "MEGACITY": 0, "SOV0NAME": "China", "SOV_A3": "CHN", "ADM0NAME": "China", "ADM0_A3": "CHN", "ADM1NAME": "Fujian", "ISO_A2": "CN", "NOTE": null, "LATITUDE": 26.229987, "LONGITUDE": 117.580048, "POP_MAX": 209444, "POP_MIN": 439, "POP_OTHER": 439, "RANK_MAX": 10, "RANK_MIN": 2, "MEGANAME": null, "LS_NAME": "Sanming", "MAX_POP10": 439, "MAX_POP20": 0, "MAX_POP50": 0, "MAX_POP300": 0, "MAX_POP310": 0, "MAX_NATSCA": 10, "MIN_AREAKM": 1, "MAX_AREAKM": 1, "MIN_AREAMI": 0, "MAX_AREAMI": 0, "MIN_PERKM": 4, "MAX_PERKM": 4, "MIN_PERMI": 2, "MAX_PERMI": 2, "MIN_BBXMIN": 117.575, "MAX_BBXMIN": 117.575, "MIN_BBXMAX": 117.583333, "MAX_BBXMAX": 117.583333, "MIN_BBYMIN": 26.225, "MAX_BBYMIN": 26.225, "MIN_BBYMAX": 26.233333, "MAX_BBYMAX": 26.233333, "MEAN_BBXC": 117.579167, "MEAN_BBYC": 26.229167, "TIMEZONE": "Asia/Shanghai", "UN_FID": 0, "POP1950": 0, "POP1955": 0, "POP1960": 0, "POP1965": 0, "POP1970": 0, "POP1975": 0, "POP1980": 0, "POP1985": 0, "POP1990": 0, "POP1995": 0, "POP2000": 0, "POP2005": 0, "POP2010": 0, "POP2015": 0, "POP2020": 0, "POP2025": 0, "POP2050": 0, "MIN_ZOOM": 7, "WIKIDATAID": "Q68614", "WOF_ID": 102027189, "CAPALT": 0, "NAME_EN": "Sanming", "NAME_DE": "Sanming", "NAME_ES": "Sanming", "NAME_FR": "Sanming", "NAME_PT": "Sanming", "NAME_RU": "Саньмин", "NAME_ZH": "三明", "LABEL": null, "NAME_AR": "سامينغ", "NAME_BN": "সানমিং", "NAME_EL": "Σανμίνγκ", "NAME_HI": "सानमिंग", "NAME_HU": "Szanming", "NAME_ID": "Sanming", "NAME_IT": "Sanming", "NAME_JA": "三明市", "NAME_KO": "싼밍시", "NAME_NL": "Sanming", "NAME_PL": "Sanming", "NAME_SV": "Sanming", "NAME_TR": "Sanming", "NAME_VI": "Tam Minh", "NE_ID": 1159129789, "NAME_FA": "سانمینگ", "NAME_HE": "סנמינג", "NAME_UK": "Саньмін", "NAME_UR": "سانمنگ", "NAME_ZHT": "三明市", "GEONAMESID": 1796663, "FCLASS_ISO": null, "FCLASS_US": null, "FCLASS_FR": null, "FCLASS_RU": null, "FCLASS_ES": null, "FCLASS_CN": null, "FCLASS_TW": null, "FCLASS_IN": null, "FCLASS_NP": null, "FCLASS_PK": null, "FCLASS_DE": null, "FCLASS_GB": null, "FCLASS_BR": null, "FCLASS_IL": null, "FCLASS_PS": null, "FCLASS_SA": null, "FCLASS_EG": null, "FCLASS_MA": null, "FCLASS_PT": null, "FCLASS_AR": null, "FCLASS_JP": null, "FCLASS_KO": null, "FCLASS_VN": null, "FCLASS_TR": null, "FCLASS_ID": null, "FCLASS_PL": null, "FCLASS_GR": null, "FCLASS_IT": null, "FCLASS_NL": null, "FCLASS_SE": null, "FCLASS_BD": null, "FCLASS_UA": null, "FCLASS_TLC": null}, "bbox": [117.580048, 26.229987, 117.580048, 26.229987], "geometry": {"type": "Point", "coordinates": [117.580048, 26.229987]}}, {"type": "Feature", "properties": {"SCALERANK": 8, "NATSCALE": 10, "LABELRANK": 1, "FEATURECLA": "Populated place", "NAME": "Zixing", "NAMEPAR": null, "NAMEALT": null, "NAMEASCII": "Zixing", "ADM0CAP": 0, "CAPIN": null, "WORLDCITY": 0, "MEGACITY": 0, "SOV0NAME": "China", "SOV_A3": "CHN", "ADM0NAME": "China", "ADM0_A3": "CHN", "ADM1NAME": "Hunan", "ISO_A2": "CN", "NOTE": null, "LATITUDE": 25.969977, "LONGITUDE": 113.400044, "POP_MAX": 6618, "POP_MIN": 6618, "POP_OTHER": 6618, "RANK_MAX": 5, "RANK_MIN": 5, "MEGANAME": null, "LS_NAME": "Zixing", "MAX_POP10": 6618, "MAX_POP20": 0, "MAX_POP50": 0, "MAX_POP300": 0, "MAX_POP310": 0, "MAX_NATSCA": 10, "MIN_AREAKM": 8, "MAX_AREAKM": 8, "MIN_AREAMI": 3, "MAX_AREAMI": 3, "MIN_PERKM": 16, "MAX_PERKM": 16, "MIN_PERMI": 10, "MAX_PERMI": 10, "MIN_BBXMIN": 113.383333, "MAX_BBXMIN": 113.383333, "MIN_BBXMAX": 113.416667, "MAX_BBXMAX": 113.416667, "MIN_BBYMIN": 25.958333, "MAX_BBYMIN": 25.958333, "MIN_BBYMAX": 26, "MAX_BBYMAX": 26, "MEAN_BBXC": 113.401136, "MEAN_BBYC": 25.976894, "TIMEZONE": null, "UN_FID": 0, "POP1950": 0, "POP1955": 0, "POP1960": 0, "POP1965": 0, "POP1970": 0, "POP1975": 0, "POP1980": 0, "POP1985": 0, "POP1990": 0, "POP1995": 0, "POP2000": 0, "POP2005": 0, "POP2010": 0, "POP2015": 0, "POP2020": 0, "POP2025": 0, "POP2050": 0, "MIN_ZOOM": 7, "WIKIDATAID": "Q206996", "WOF_ID": 1141906539, "CAPALT": 0, "NAME_EN": "Zixing", "NAME_DE": "Zixing", "NAME_ES": "Zixing", "NAME_FR": "Zixing", "NAME_PT": "Zixing", "NAME_RU": "Цзысин", "NAME_ZH": "资兴", "LABEL": null, "NAME_AR": "زيكسينج", "NAME_BN": "জিশিং", "NAME_EL": "Ζιξίνγκ", "NAME_HI": "ज़िक्सिंग", "NAME_HU": "Zixing", "NAME_ID": "Zixing", "NAME_IT": "Zixing", "NAME_JA": "資興市", "NAME_KO": "쯔싱시", "NAME_NL": "Zixing", "NAME_PL": "Zixing", "NAME_SV": "Zixing", "NAME_TR": "Zixing", "NAME_VI": "Tư Hưng", "NE_ID": 1159130157, "NAME_FA": "زیکسینگ", "NAME_HE": "זיקסינג", "NAME_UK": "Цзисінь", "NAME_UR": "ززنگ", "NAME_ZHT": "資興市", "GEONAMESID": 1783687, "FCLASS_ISO": null, "FCLASS_US": null, "FCLASS_FR": null, "FCLASS_RU": null, "FCLASS_ES": null, "FCLASS_CN": null, "FCLASS_TW": null, "FCLASS_IN": null, "FCLASS_NP": null, "FCLASS_PK": null, "FCLASS_DE": null, "FCLASS_GB": null, "FCLASS_BR": null, "FCLASS_IL": null, "FCLASS_PS": null, "FCLASS_SA": null, "FCLASS_EG": null, "FCLASS_MA": null, "FCLASS_PT": null, "FCLASS_AR": null, "FCLASS_JP": null, "FCLASS_KO": null, "FCLASS_VN": null, "FCLASS_TR": null, "FCLASS_ID": null, "FCLASS_PL": null, "FCLASS_GR": null, "FCLASS_IT": null, "FCLASS_NL": null, "FCLASS_SE": null, "FCLASS_BD": null, "FCLASS_UA": null, "FCLASS_TLC": null}, "bbox": [113.400044, 25.969977, 113.400044, 25.969977], "geometry": {"type": "Point", "coordinates": [113.400044, 25.969977]}}, {"type": "Feature", "properties": {"SCALERANK": 7, "NATSCALE": 20, "LABELRANK": 1, "FEATURECLA": "Populated place", "NAME": "Shaowu", "NAMEPAR": null, "NAMEALT": null, "NAMEASCII": "Shaowu", "ADM0CAP": 0, "CAPIN": null, "WORLDCITY": 0, "MEGACITY": 0, "SOV0NAME": "China", "SOV_A3": "CHN", "ADM0NAME": "China", "ADM0_A3": "CHN", "ADM1NAME": "Fujian", "ISO_A2": "CN", "NOTE": null, "LATITUDE": 27.300387, "LONGITUDE": 117.500001, "POP_MAX": 112585, "POP_MIN": 1194, "POP_OTHER": 1194, "RANK_MAX": 9, "RANK_MIN": 3, "MEGANAME": null, "LS_NAME": "Shaowu", "MAX_POP10": 1194, "MAX_POP20": 1194, "MAX_POP50": 0, "MAX_POP300": 0, "MAX_POP310": 0, "MAX_NATSCA": 20, "MIN_AREAKM": 1, "MAX_AREAKM": 1, "MIN_AREAMI": 0, "MAX_AREAMI": 0, "MIN_PERKM": 3, "MAX_PERKM": 3, "MIN_PERMI": 2, "MAX_PERMI": 2, "MIN_BBXMIN": 117.491667, "MAX_BBXMIN": 117.491667, "MIN_BBXMAX": 117.5, "MAX_BBXMAX": 117.5, "MIN_BBYMIN": 27.291667, "MAX_BBYMIN": 27.291667, "MIN_BBYMAX": 27.3, "MAX_BBYMAX": 27.3, "MEAN_BBXC": 117.495833, "MEAN_BBYC": 27.295833, "TIMEZONE": "Asia/Shanghai", "UN_FID": 0, "POP1950": 0, "POP1955": 0, "POP1960": 0, "POP1965": 0, "POP1970": 0, "POP1975": 0, "POP1980": 0, "POP1985": 0, "POP1990": 0, "POP1995": 0, "POP2000": 0, "POP2005": 0, "POP2010": 0, "POP2015": 0, "POP2020": 0, "POP2025": 0, "POP2050": 0, "MIN_ZOOM": 6.7, "WIKIDATAID": "Q1025451", "WOF_ID": 890516365, "CAPALT": 0, "NAME_EN": "Shaowu", "NAME_DE": "Shaowu", "NAME_ES": "Shaowu", "NAME_FR": "Shaowu", "NAME_PT": "Shaowu", "NAME_RU": "Шаоу", "NAME_ZH": "邵武", "LABEL": null, "NAME_AR": "شاوو", "NAME_BN": "শাও-উ", "NAME_EL": "Σάογου", "NAME_HI": "शओउ", "NAME_HU": "Shaowu", "NAME_ID": "Shaowu", "NAME_IT": "Shaowu", "NAME_JA": "邵武市", "NAME_KO": "사오우시", "NAME_NL": "Shaowu", "NAME_PL": "Shaowu", "NAME_SV": "Shaowu", "NAME_TR": "Showu", "NAME_VI": "Thiệu Vũ", "NE_ID": 1159139675, "NAME_FA": "شاوو", "NAME_HE": "שאווו", "NAME_UK": "Шаову", "NAME_UR": "شاؤوو", "NAME_ZHT": "邵武市", "GEONAMESID": 1795857, "FCLASS_ISO": null, "FCLASS_US": null, "FCLASS_FR": null, "FCLASS_RU": null, "FCLASS_ES": null, "FCLASS_CN": null, "FCLASS_TW": null, "FCLASS_IN": null, "FCLASS_NP": null, "FCLASS_PK": null, "FCLASS_DE": null, "FCLASS_GB": null, "FCLASS_BR": null, "FCLASS_IL": null, "FCLASS_PS": null, "FCLASS_SA": null, "FCLASS_EG": null, "FCLASS_MA": null, "FCLASS_PT": null, "FCLASS_AR": null, "FCLASS_JP": null, "FCLASS_KO": null, "FCLASS_VN": null, "FCLASS_TR": null, "FCLASS_ID": null, "FCLASS_PL": null, "FCLASS_GR": null, "FCLASS_IT": null, "FCLASS_NL": null, "FCLASS_SE": null, "FCLASS_BD": null, "FCLASS_UA": null, "FCLASS_TLC": null}, "bbox": [117.500001, 27.300387, 117.500001, 27.300387], "geometry": {"type": "Point", "coordinates": [117.500001, 27.300387]}}, {"type": "Feature", "properties": {"SCALERANK": 7, "NATSCALE": 20, "LABELRANK": 1, "FEATURECLA": "Populated place", "NAME": "Longyan", "NAMEPAR": null, "NAMEALT": null, "NAMEASCII": "Longyan", "ADM0CAP": 0, "CAPIN": null, "WORLDCITY": 0, "MEGACITY": 0, "SOV0NAME": "China", "SOV_A3": "CHN", "ADM0NAME": "China", "ADM0_A3": "CHN", "ADM1NAME": "Fujian", "ISO_A2": "CN", "NOTE": null, "LATITUDE": 25.180413, "LONGITUDE": 117.030004, "POP_MAX": 367896, "POP_MIN": 367896, "POP_OTHER": 0, "RANK_MAX": 10, "RANK_MIN": 10, "MEGANAME": null, "LS_NAME": "Longyan", "MAX_POP10": 367896, "MAX_POP20": 367896, "MAX_POP50": 0, "MAX_POP300": 0, "MAX_POP310": 0, "MAX_NATSCA": 20, "MIN_AREAKM": 78, "MAX_AREAKM": 78, "MIN_AREAMI": 30, "MAX_AREAMI": 30, "MIN_PERKM": 79, "MAX_PERKM": 79, "MIN_PERMI": 49, "MAX_PERMI": 49, "MIN_BBXMIN": 116.958333, "MAX_BBXMIN": 116.958333, "MIN_BBXMAX": 117.058333, "MAX_BBXMAX": 117.058333, "MIN_BBYMIN": 25, "MAX_BBYMIN": 25, "MIN_BBYMAX": 25.141667, "MAX_BBYMAX": 25.141667, "MEAN_BBXC": 117.012665, "MEAN_BBYC": 25.083457, "TIMEZONE": null, "UN_FID": 0, "POP1950": 0, "POP1955": 0, "POP1960": 0, "POP1965": 0, "POP1970": 0, "POP1975": 0, "POP1980": 0, "POP1985": 0, "POP1990": 0, "POP1995": 0, "POP2000": 0, "POP2005": 0, "POP2010": 0, "POP2015": 0, "POP2020": 0, "POP2025": 0, "POP2050": 0, "MIN_ZOOM": 6.1, "WIKIDATAID": "Q68862", "WOF_ID": 1141907551, "CAPALT": 0, "NAME_EN": "Longyan", "NAME_DE": "Longyan", "NAME_ES": "Longyan", "NAME_FR": "Longyan", "NAME_PT": "Longyan", "NAME_RU": "Лунъянь", "NAME_ZH": "龙岩", "LABEL": null, "NAME_AR": "لونغيان", "NAME_BN": "লুংইয়ান", "NAME_EL": "Λονγκγιάν", "NAME_HI": "लांग्यान", "NAME_HU": "Longyan", "NAME_ID": "Longyan", "NAME_IT": "Longyan", "NAME_JA": "竜岩市", "NAME_KO": "룽옌시", "NAME_NL": "Longyan", "NAME_PL": "Longyan", "NAME_SV": "Longyan", "NAME_TR": "Longyan", "NAME_VI": "Long Nham", "NE_ID": 1159139679, "NAME_FA": "لانگیان", "NAME_HE": "לונגיאן", "NAME_UK": "Лун'янь", "NAME_UR": "لونگیان", "NAME_ZHT": "龍岩市", "GEONAMESID": -1, "FCLASS_ISO": null, "FCLASS_US": null, "FCLASS_FR": null, "FCLASS_RU": null, "FCLASS_ES": null, "FCLASS_CN": null, "FCLASS_TW": null, "FCLASS_IN": null, "FCLASS_NP": null, "FCLASS_PK": null, "FCLASS_DE": null, "FCLASS_GB": null, "FCLASS_BR": null, "FCLASS_IL": null, "FCLASS_PS": null, "FCLASS_SA": null, "FCLASS_EG": null, "FCLASS_MA": null, "FCLASS_PT": null, "FCLASS_AR": null, "FCLASS_JP": null, "FCLASS_KO": null, "FCLASS_VN": null, "FCLASS_TR": null, "FCLASS_ID": null, "FCLASS_PL": null, "FCLASS_GR": null, "FCLASS_IT": null, "FCLASS_NL": null, "FCLASS_SE": null, "FCLASS_BD": null, "FCLASS_UA": null, "FCLASS_TLC": null}, "bbox": [116.995048, 25.073515, 116.995048, 25.073515], "geometry": {"type": "Point", "coordinates": [116.995048, 25.073515]}}, {"type": "Feature", "properties": {"SCALERANK": 7, "NATSCALE": 20, "LABELRANK": 1, "FEATURECLA": "Populated place", "NAME": "Zhangzhou", "NAMEPAR": null, "NAMEALT": null, "NAMEASCII": "Zhangzhou", "ADM0CAP": 0, "CAPIN": null, "WORLDCITY": 0, "MEGACITY": 0, "SOV0NAME": "China", "SOV_A3": "CHN", "ADM0NAME": "China", "ADM0_A3": "CHN", "ADM1NAME": "Fujian", "ISO_A2": "CN", "NOTE": null, "LATITUDE": 24.520375, "LONGITUDE": 117.670016, "POP_MAX": 3531147, "POP_MIN": 1338452, "POP_OTHER": 1323226, "RANK_MAX": 12, "RANK_MIN": 12, "MEGANAME": null, "LS_NAME": "Zhangzhou", "MAX_POP10": 1338452, "MAX_POP20": 1338452, "MAX_POP50": 0, "MAX_POP300": 0, "MAX_POP310": 0, "MAX_NATSCA": 20, "MIN_AREAKM": 514, "MAX_AREAKM": 514, "MIN_AREAMI": 198, "MAX_AREAMI": 198, "MIN_PERKM": 465, "MAX_PERKM": 465, "MIN_PERMI": 289, "MAX_PERMI": 289, "MIN_BBXMIN": 117.508333, "MAX_BBXMIN": 117.508333, "MIN_BBXMAX": 117.887524, "MAX_BBXMAX": 117.887524, "MIN_BBYMIN": 24.383333, "MAX_BBYMIN": 24.383333, "MIN_BBYMAX": 24.775, "MAX_BBYMAX": 24.775, "MEAN_BBXC": 117.715828, "MEAN_BBYC": 24.545446, "TIMEZONE": "Asia/Shanghai", "UN_FID": 0, "POP1950": 0, "POP1955": 0, "POP1960": 0, "POP1965": 0, "POP1970": 0, "POP1975": 0, "POP1980": 0, "POP1985": 0, "POP1990": 0, "POP1995": 0, "POP2000": 0, "POP2005": 0, "POP2010": 0, "POP2015": 0, "POP2020": 0, "POP2025": 0, "POP2050": 0, "MIN_ZOOM": 6.7, "WIKIDATAID": "Q68814", "WOF_ID": 102026913, "CAPALT": 0, "NAME_EN": "Zhangzhou", "NAME_DE": "Zhangzhou", "NAME_ES": "Zhangzhou", "NAME_FR": "Zhangzhou", "NAME_PT": "Zhangzhou", "NAME_RU": "Чжанчжоу", "NAME_ZH": "漳州", "LABEL": null, "NAME_AR": "زهانغزهو", "NAME_BN": "চাংচৌ", "NAME_EL": "Τσανγκτσόου", "NAME_HI": "ज़्हंग्ज़्हौ", "NAME_HU": "Zhangzhou", "NAME_ID": "Zhangzhou", "NAME_IT": "Zhangzhou", "NAME_JA": "漳州市", "NAME_KO": "장저우시", "NAME_NL": "Zhangzhou", "NAME_PL": "Zhangzhou", "NAME_SV": "Zhangzhou", "NAME_TR": "Zhangzhou", "NAME_VI": "Chương Châu", "NE_ID": 1159139683, "NAME_FA": "جانگجاو", "NAME_HE": "ז'נג'ואו", "NAME_UK": "Чжанчжоу", "NAME_UR": "ژانگژو", "NAME_ZHT": "漳州市", "GEONAMESID": 1785018, "FCLASS_ISO": null, "FCLASS_US": null, "FCLASS_FR": null, "FCLASS_RU": null, "FCLASS_ES": null, "FCLASS_CN": null, "FCLASS_TW": null, "FCLASS_IN": null, "FCLASS_NP": null, "FCLASS_PK": null, "FCLASS_DE": null, "FCLASS_GB": null, "FCLASS_BR": null, "FCLASS_IL": null, "FCLASS_PS": null, "FCLASS_SA": null, "FCLASS_EG": null, "FCLASS_MA": null, "FCLASS_PT": null, "FCLASS_AR": null, "FCLASS_JP": null, "FCLASS_KO": null, "FCLASS_VN": null, "FCLASS_TR": null, "FCLASS_ID": null, "FCLASS_PL": null, "FCLASS_GR": null, "FCLASS_IT": null, "FCLASS_NL": null, "FCLASS_SE": null, "FCLASS_BD": null, "FCLASS_UA": null, "FCLASS_TLC": null}, "bbox": [117.670016, 24.520375, 117.670016, 24.520375], "geometry": {"type": "Point", "coordinates": [117.670016, 24.520375]}}, {"type": "Feature", "properties": {"SCALERANK": 7, "NATSCALE": 20, "LABELRANK": 1, "FEATURECLA": "Populated place", "NAME": "Changting", "NAMEPAR": null, "NAMEALT": null, "NAMEASCII": "Changting", "ADM0CAP": 0, "CAPIN": null, "WORLDCITY": 0, "MEGACITY": 0, "SOV0NAME": "China", "SOV_A3": "CHN", "ADM0NAME": "China", "ADM0_A3": "CHN", "ADM1NAME": "Fujian", "ISO_A2": "CN", "NOTE": null, "LATITUDE": 25.866986, "LONGITUDE": 116.316662, "POP_MAX": 87458, "POP_MIN": 87458, "POP_OTHER": 0, "RANK_MAX": 8, "RANK_MIN": 8, "MEGANAME": null, "LS_NAME": "Changting", "MAX_POP10": 87458, "MAX_POP20": 87458, "MAX_POP50": 0, "MAX_POP300": 0, "MAX_POP310": 0, "MAX_NATSCA": 20, "MIN_AREAKM": 25, "MAX_AREAKM": 25, "MIN_AREAMI": 10, "MAX_AREAMI": 10, "MIN_PERKM": 35, "MAX_PERKM": 35, "MIN_PERMI": 22, "MAX_PERMI": 22, "MIN_BBXMIN": 116.316667, "MAX_BBXMIN": 116.316667, "MIN_BBXMAX": 116.408333, "MAX_BBXMAX": 116.408333, "MIN_BBYMIN": 25.816667, "MAX_BBYMIN": 25.816667, "MIN_BBYMAX": 25.883333, "MAX_BBYMAX": 25.883333, "MEAN_BBXC": 116.367448, "MEAN_BBYC": 25.851042, "TIMEZONE": null, "UN_FID": 0, "POP1950": 0, "POP1955": 0, "POP1960": 0, "POP1965": 0, "POP1970": 0, "POP1975": 0, "POP1980": 0, "POP1985": 0, "POP1990": 0, "POP1995": 0, "POP2000": 0, "POP2005": 0, "POP2010": 0, "POP2015": 0, "POP2020": 0, "POP2025": 0, "POP2050": 0, "MIN_ZOOM": 6.7, "WIKIDATAID": null, "WOF_ID": 1141907555, "CAPALT": 0, "NAME_EN": "Changting", "NAME_DE": "Changting", "NAME_ES": "Changting", "NAME_FR": "Changting", "NAME_PT": "Changting", "NAME_RU": "Чантин", "NAME_ZH": "长汀县", "LABEL": null, "NAME_AR": "تشانغتينغ", "NAME_BN": "চ্যাংতিং", "NAME_EL": "Τσανγκτίνγκ", "NAME_HI": "चैंगटिंग", "NAME_HU": "Changting", "NAME_ID": "Changting", "NAME_IT": "Changting", "NAME_JA": "長汀", "NAME_KO": "창팅", "NAME_NL": "Changting", "NAME_PL": "Changting", "NAME_SV": "Changting", "NAME_TR": "Changting", "NAME_VI": "Trường Đinh", "NE_ID": 1159139697, "NAME_FA": "چانگ تینگ", "NAME_HE": "צ'נגטינג", "NAME_UK": "Чжантін", "NAME_UR": "چینگٹنگ", "NAME_ZHT": "長汀", "GEONAMESID": -1, "FCLASS_ISO": null, "FCLASS_US": null, "FCLASS_FR": null, "FCLASS_RU": null, "FCLASS_ES": null, "FCLASS_CN": null, "FCLASS_TW": null, "FCLASS_IN": null, "FCLASS_NP": null, "FCLASS_PK": null, "FCLASS_DE": null, "FCLASS_GB": null, "FCLASS_BR": null, "FCLASS_IL": null, "FCLASS_PS": null, "FCLASS_SA": null, "FCLASS_EG": null, "FCLASS_MA": null, "FCLASS_PT": null, "FCLASS_AR": null, "FCLASS_JP": null, "FCLASS_KO": null, "FCLASS_VN": null, "FCLASS_TR": null, "FCLASS_ID": null, "FCLASS_PL": null, "FCLASS_GR": null, "FCLASS_IT": null, "FCLASS_NL": null, "FCLASS_SE": null, "FCLASS_BD": null, "FCLASS_UA": null, "FCLASS_TLC": null}, "bbox": [116.316662, 25.866986, 116.316662, 25.866986], "geometry": {"type": "Point", "coordinates": [116.316662, 25.866986]}}, {"type": "Feature", "properties": {"SCALERANK": 7, "NATSCALE": 20, "LABELRANK": 1, "FEATURECLA": "Populated place", "NAME": "Nanping", "NAMEPAR": null, "NAMEALT": null, "NAMEASCII": "Nanping", "ADM0CAP": 0, "CAPIN": null, "WORLDCITY": 0, "MEGACITY": 0, "SOV0NAME": "China", "SOV_A3": "CHN", "ADM0NAME": "China", "ADM0_A3": "CHN", "ADM1NAME": "Fujian", "ISO_A2": "CN", "NOTE": null, "LATITUDE": 26.630376, "LONGITUDE": 118.169986, "POP_MAX": 213054, "POP_MIN": 171674, "POP_OTHER": 213054, "RANK_MAX": 10, "RANK_MIN": 9, "MEGANAME": null, "LS_NAME": "Nanping", "MAX_POP10": 213054, "MAX_POP20": 213054, "MAX_POP50": 0, "MAX_POP300": 0, "MAX_POP310": 0, "MAX_NATSCA": 20, "MIN_AREAKM": 28, "MAX_AREAKM": 28, "MIN_AREAMI": 11, "MAX_AREAMI": 11, "MIN_PERKM": 40, "MAX_PERKM": 40, "MIN_PERMI": 25, "MAX_PERMI": 25, "MIN_BBXMIN": 118.141667, "MAX_BBXMIN": 118.141667, "MIN_BBXMAX": 118.208333, "MAX_BBXMAX": 118.208333, "MIN_BBYMIN": 26.6, "MAX_BBYMIN": 26.6, "MIN_BBYMAX": 26.691667, "MAX_BBYMAX": 26.691667, "MEAN_BBXC": 118.16713, "MEAN_BBYC": 26.643519, "TIMEZONE": "Asia/Shanghai", "UN_FID": 0, "POP1950": 0, "POP1955": 0, "POP1960": 0, "POP1965": 0, "POP1970": 0, "POP1975": 0, "POP1980": 0, "POP1985": 0, "POP1990": 0, "POP1995": 0, "POP2000": 0, "POP2005": 0, "POP2010": 0, "POP2015": 0, "POP2020": 0, "POP2025": 0, "POP2050": 0, "MIN_ZOOM": 6.1, "WIKIDATAID": "Q68534", "WOF_ID": 102027283, "CAPALT": 0, "NAME_EN": "Nanping", "NAME_DE": "Nanping", "NAME_ES": "Nanping", "NAME_FR": "Nanping", "NAME_PT": "Nanping", "NAME_RU": "Наньпин", "NAME_ZH": "南平", "LABEL": null, "NAME_AR": "نانبينغ", "NAME_BN": "নানফিং", "NAME_EL": "Νανπίνγκ", "NAME_HI": "नानपिंग", "NAME_HU": "Nanping", "NAME_ID": "Nanping", "NAME_IT": "Nanping", "NAME_JA": "南平市", "NAME_KO": "난핑시", "NAME_NL": "Nanping", "NAME_PL": "Nanping", "NAME_SV": "Nanping", "NAME_TR": "Nanping", "NAME_VI": "Nam Bình", "NE_ID": 1159139701, "NAME_FA": "نانپینگ", "NAME_HE": "נאנפינג", "NAME_UK": "Наньпін", "NAME_UR": "نانپنگ", "NAME_ZHT": "南平市", "GEONAMESID": 1799846, "FCLASS_ISO": null, "FCLASS_US": null, "FCLASS_FR": null, "FCLASS_RU": null, "FCLASS_ES": null, "FCLASS_CN": null, "FCLASS_TW": null, "FCLASS_IN": null, "FCLASS_NP": null, "FCLASS_PK": null, "FCLASS_DE": null, "FCLASS_GB": null, "FCLASS_BR": null, "FCLASS_IL": null, "FCLASS_PS": null, "FCLASS_SA": null, "FCLASS_EG": null, "FCLASS_MA": null, "FCLASS_PT": null, "FCLASS_AR": null, "FCLASS_JP": null, "FCLASS_KO": null, "FCLASS_VN": null, "FCLASS_TR": null, "FCLASS_ID": null, "FCLASS_PL": null, "FCLASS_GR": null, "FCLASS_IT": null, "FCLASS_NL": null, "FCLASS_SE": null, "FCLASS_BD": null, "FCLASS_UA": null, "FCLASS_TLC": null}, "bbox": [118.169986, 26.630376, 118.169986, 26.630376], "geometry": {"type": "Point", "coordinates": [118.169986, 26.630376]}}, {"type": "Feature", "properties": {"SCALERANK": 7, "NATSCALE": 20, "LABELRANK": 1, "FEATURECLA": "Populated place", "NAME": "Meizhou", "NAMEPAR": null, "NAMEALT": null, "NAMEASCII": "Meizhou", "ADM0CAP": 0, "CAPIN": null, "WORLDCITY": 0, "MEGACITY": 0, "SOV0NAME": "China", "SOV_A3": "CHN", "ADM0NAME": "China", "ADM0_A3": "CHN", "ADM1NAME": "Guangdong", "ISO_A2": "CN", "NOTE": null, "LATITUDE": 24.300492, "LONGITUDE": 116.119982, "POP_MAX": 414930, "POP_MIN": 144212, "POP_OTHER": 425756, "RANK_MAX": 10, "RANK_MIN": 9, "MEGANAME": null, "LS_NAME": "Meizhou", "MAX_POP10": 414930, "MAX_POP20": 414930, "MAX_POP50": 0, "MAX_POP300": 0, "MAX_POP310": 0, "MAX_NATSCA": 20, "MIN_AREAKM": 119, "MAX_AREAKM": 119, "MIN_AREAMI": 46, "MAX_AREAMI": 46, "MIN_PERKM": 115, "MAX_PERKM": 115, "MIN_PERMI": 72, "MAX_PERMI": 72, "MIN_BBXMIN": 115.991667, "MAX_BBXMIN": 115.991667, "MIN_BBXMAX": 116.15, "MAX_BBXMAX": 116.15, "MIN_BBYMIN": 24.233333, "MAX_BBYMIN": 24.233333, "MIN_BBYMAX": 24.383333, "MAX_BBYMAX": 24.383333, "MEAN_BBXC": 116.088045, "MEAN_BBYC": 24.298502, "TIMEZONE": "Asia/Shanghai", "UN_FID": 0, "POP1950": 0, "POP1955": 0, "POP1960": 0, "POP1965": 0, "POP1970": 0, "POP1975": 0, "POP1980": 0, "POP1985": 0, "POP1990": 0, "POP1995": 0, "POP2000": 0, "POP2005": 0, "POP2010": 0, "POP2015": 0, "POP2020": 0, "POP2025": 0, "POP2050": 0, "MIN_ZOOM": 6.7, "WIKIDATAID": "Q59184", "WOF_ID": 102027317, "CAPALT": 0, "NAME_EN": "Meizhou", "NAME_DE": "Meizhou", "NAME_ES": "Meizhou", "NAME_FR": "Meizhou", "NAME_PT": "Meizhou", "NAME_RU": "Мэйчжоу", "NAME_ZH": "梅州", "LABEL": null, "NAME_AR": "ماوزو", "NAME_BN": "মেইচৌ", "NAME_EL": "Μεϊτζόου", "NAME_HI": "मैंज़होउ", "NAME_HU": "Meizhou", "NAME_ID": "Meizhou", "NAME_IT": "Meizhou", "NAME_JA": "梅州市", "NAME_KO": "메이저우시", "NAME_NL": "Meizhou", "NAME_PL": "Meizhou", "NAME_SV": "Meizhou", "NAME_TR": "Meizhou", "NAME_VI": "Mai Châu", "NE_ID": 1159139735, "NAME_FA": "ماوژوا", "NAME_HE": "מאיז'ואו", "NAME_UK": "Мейчжоу", "NAME_UR": "مئیژو", "NAME_ZHT": "梅州市", "GEONAMESID": 1800779, "FCLASS_ISO": null, "FCLASS_US": null, "FCLASS_FR": null, "FCLASS_RU": null, "FCLASS_ES": null, "FCLASS_CN": null, "FCLASS_TW": null, "FCLASS_IN": null, "FCLASS_NP": null, "FCLASS_PK": null, "FCLASS_DE": null, "FCLASS_GB": null, "FCLASS_BR": null, "FCLASS_IL": null, "FCLASS_PS": null, "FCLASS_SA": null, "FCLASS_EG": null, "FCLASS_MA": null, "FCLASS_PT": null, "FCLASS_AR": null, "FCLASS_JP": null, "FCLASS_KO": null, "FCLASS_VN": null, "FCLASS_TR": null, "FCLASS_ID": null, "FCLASS_PL": null, "FCLASS_GR": null, "FCLASS_IT": null, "FCLASS_NL": null, "FCLASS_SE": null, "FCLASS_BD": null, "FCLASS_UA": null, "FCLASS_TLC": null}, "bbox": [116.119982, 24.300492, 116.119982, 24.300492], "geometry": {"type": "Point", "coordinates": [116.119982, 24.300492]}}, {"type": "Feature", "properties": {"SCALERANK": 7, "NATSCALE": 20, "LABELRANK": 1, "FEATURECLA": "Populated place", "NAME": "Puqi", "NAMEPAR": null, "NAMEALT": null, "NAMEASCII": "Puqi", "ADM0CAP": 0, "CAPIN": null, "WORLDCITY": 0, "MEGACITY": 0, "SOV0NAME": "China", "SOV_A3": "CHN", "ADM0NAME": "China", "ADM0_A3": "CHN", "ADM1NAME": "Hubei", "ISO_A2": "CN", "NOTE": null, "LATITUDE": 29.72042, "LONGITUDE": 113.880015, "POP_MAX": 205164, "POP_MIN": 132891, "POP_OTHER": 616592, "RANK_MAX": 10, "RANK_MIN": 9, "MEGANAME": null, "LS_NAME": "Puqi", "MAX_POP10": 205164, "MAX_POP20": 205164, "MAX_POP50": 0, "MAX_POP300": 0, "MAX_POP310": 0, "MAX_NATSCA": 20, "MIN_AREAKM": 95, "MAX_AREAKM": 95, "MIN_AREAMI": 37, "MAX_AREAMI": 37, "MIN_PERKM": 134, "MAX_PERKM": 134, "MIN_PERMI": 83, "MAX_PERMI": 83, "MIN_BBXMIN": 113.8, "MAX_BBXMIN": 113.8, "MIN_BBXMAX": 114.075, "MAX_BBXMAX": 114.075, "MIN_BBYMIN": 29.666667, "MAX_BBYMIN": 29.666667, "MIN_BBYMAX": 29.808333, "MAX_BBYMAX": 29.808333, "MEAN_BBXC": 113.916797, "MEAN_BBYC": 29.744401, "TIMEZONE": "Asia/Chongqing", "UN_FID": 0, "POP1950": 0, "POP1955": 0, "POP1960": 0, "POP1965": 0, "POP1970": 0, "POP1975": 0, "POP1980": 0, "POP1985": 0, "POP1990": 0, "POP1995": 0, "POP2000": 0, "POP2005": 0, "POP2010": 0, "POP2015": 0, "POP2020": 0, "POP2025": 0, "POP2050": 0, "MIN_ZOOM": 6.7, "WIKIDATAID": null, "WOF_ID": 890512939, "CAPALT": 0, "NAME_EN": "Puqi", "NAME_DE": "Puqi", "NAME_ES": "Puqi", "NAME_FR": "Puqi", "NAME_PT": "Chibi", "NAME_RU": "Пуци", "NAME_ZH": "赤壁市", "LABEL": null, "NAME_AR": "بوكي", "NAME_BN": "পুকি", "NAME_EL": "Πουκί", "NAME_HI": "पुकी", "NAME_HU": "Puqi", "NAME_ID": "Puqi", "NAME_IT": "Puqi", "NAME_JA": "赤壁市", "NAME_KO": "푸치", "NAME_NL": "Puqi", "NAME_PL": "Puqi", "NAME_SV": "Puqi", "NAME_TR": "Puqi", "NAME_VI": "Bồ Kỳ", "NE_ID": 1159140783, "NAME_FA": "پوکی", "NAME_HE": "פוקי", "NAME_UK": "Пуци", "NAME_UR": "پوقی", "NAME_ZHT": "赤壁", "GEONAMESID": 1798473, "FCLASS_ISO": null, "FCLASS_US": null, "FCLASS_FR": null, "FCLASS_RU": null, "FCLASS_ES": null, "FCLASS_CN": null, "FCLASS_TW": null, "FCLASS_IN": null, "FCLASS_NP": null, "FCLASS_PK": null, "FCLASS_DE": null, "FCLASS_GB": null, "FCLASS_BR": null, "FCLASS_IL": null, "FCLASS_PS": null, "FCLASS_SA": null, "FCLASS_EG": null, "FCLASS_MA": null, "FCLASS_PT": null, "FCLASS_AR": null, "FCLASS_JP": null, "FCLASS_KO": null, "FCLASS_VN": null, "FCLASS_TR": null, "FCLASS_ID": null, "FCLASS_PL": null, "FCLASS_GR": null, "FCLASS_IT": null, "FCLASS_NL": null, "FCLASS_SE": null, "FCLASS_BD": null, "FCLASS_UA": null, "FCLASS_TLC": null}, "bbox": [113.880015, 29.72042, 113.880015, 29.72042], "geometry": {"type": "Point", "coordinates": [113.880015, 29.72042]}}, {"type": "Feature", "properties": {"SCALERANK": 7, "NATSCALE": 20, "LABELRANK": 1, "FEATURECLA": "Populated place", "NAME": "Linchuan", "NAMEPAR": null, "NAMEALT": null, "NAMEASCII": "Linchuan", "ADM0CAP": 0, "CAPIN": null, "WORLDCITY": 0, "MEGACITY": 0, "SOV0NAME": "China", "SOV_A3": "CHN", "ADM0NAME": "China", "ADM0_A3": "CHN", "ADM1NAME": "Jiangxi", "ISO_A2": "CN", "NOTE": null, "LATITUDE": 27.970346, "LONGITUDE": 116.360019, "POP_MAX": 241104, "POP_MIN": 241104, "POP_OTHER": 282920, "RANK_MAX": 10, "RANK_MIN": 10, "MEGANAME": null, "LS_NAME": "Linchuan", "MAX_POP10": 241104, "MAX_POP20": 241104, "MAX_POP50": 0, "MAX_POP300": 0, "MAX_POP310": 0, "MAX_NATSCA": 20, "MIN_AREAKM": 70, "MAX_AREAKM": 70, "MIN_AREAMI": 27, "MAX_AREAMI": 27, "MIN_PERKM": 67, "MAX_PERKM": 67, "MIN_PERMI": 41, "MAX_PERMI": 41, "MIN_BBXMIN": 116.291667, "MAX_BBXMIN": 116.291667, "MIN_BBXMAX": 116.425, "MAX_BBXMAX": 116.425, "MIN_BBYMIN": 27.95, "MAX_BBYMIN": 27.95, "MIN_BBYMAX": 28.041667, "MAX_BBYMAX": 28.041667, "MEAN_BBXC": 116.356341, "MEAN_BBYC": 27.996014, "TIMEZONE": null, "UN_FID": 0, "POP1950": 0, "POP1955": 0, "POP1960": 0, "POP1965": 0, "POP1970": 0, "POP1975": 0, "POP1980": 0, "POP1985": 0, "POP1990": 0, "POP1995": 0, "POP2000": 0, "POP2005": 0, "POP2010": 0, "POP2015": 0, "POP2020": 0, "POP2025": 0, "POP2050": 0, "MIN_ZOOM": 6.7, "WIKIDATAID": null, "WOF_ID": 1141907695, "CAPALT": 0, "NAME_EN": "Linchuan", "NAME_DE": "Linchuan", "NAME_ES": "Linchuan", "NAME_FR": "Fuzhou", "NAME_PT": "Linchuan", "NAME_RU": "Линьчуань", "NAME_ZH": "临川", "LABEL": null, "NAME_AR": "لينتشوان", "NAME_BN": "লিনচুন", "NAME_EL": "Λιντσουάν", "NAME_HI": "लिंचुआन", "NAME_HU": "Linchuan", "NAME_ID": "Linchuan", "NAME_IT": "Linchuan", "NAME_JA": "臨川", "NAME_KO": "린촨", "NAME_NL": "Linchuan", "NAME_PL": "Linchuan", "NAME_SV": "Linchuan", "NAME_TR": "Linchuan", "NAME_VI": "Lâm Xuyên", "NE_ID": 1159140965, "NAME_FA": "لینچوان", "NAME_HE": "ליאנצ'ואן", "NAME_UK": "Ліньчуань", "NAME_UR": "لنچوان", "NAME_ZHT": "臨川", "GEONAMESID": -1, "FCLASS_ISO": null, "FCLASS_US": null, "FCLASS_FR": null, "FCLASS_RU": null, "FCLASS_ES": null, "FCLASS_CN": null, "FCLASS_TW": null, "FCLASS_IN": null, "FCLASS_NP": null, "FCLASS_PK": null, "FCLASS_DE": null, "FCLASS_GB": null, "FCLASS_BR": null, "FCLASS_IL": null, "FCLASS_PS": null, "FCLASS_SA": null, "FCLASS_EG": null, "FCLASS_MA": null, "FCLASS_PT": null, "FCLASS_AR": null, "FCLASS_JP": null, "FCLASS_KO": null, "FCLASS_VN": null, "FCLASS_TR": null, "FCLASS_ID": null, "FCLASS_PL": null, "FCLASS_GR": null, "FCLASS_IT": null, "FCLASS_NL": null, "FCLASS_SE": null, "FCLASS_BD": null, "FCLASS_UA": null, "FCLASS_TLC": null}, "bbox": [116.360019, 27.970346, 116.360019, 27.970346], "geometry": {"type": "Point", "coordinates": [116.360019, 27.970346]}}, {"type": "Feature", "properties": {"SCALERANK": 7, "NATSCALE": 20, "LABELRANK": 1, "FEATURECLA": "Populated place", "NAME": "Fengcheng", "NAMEPAR": null, "NAMEALT": null, "NAMEASCII": "Fengcheng", "ADM0CAP": 0, "CAPIN": null, "WORLDCITY": 0, "MEGACITY": 0, "SOV0NAME": "China", "SOV_A3": "CHN", "ADM0NAME": "China", "ADM0_A3": "CHN", "ADM1NAME": "Jiangxi", "ISO_A2": "CN", "NOTE": null, "LATITUDE": 28.200409, "LONGITUDE": 115.770029, "POP_MAX": 61469, "POP_MIN": 61469, "POP_OTHER": 1237075, "RANK_MAX": 8, "RANK_MIN": 8, "MEGANAME": null, "LS_NAME": "Fengcheng", "MAX_POP10": 1154812, "MAX_POP20": 1579043, "MAX_POP50": 0, "MAX_POP300": 0, "MAX_POP310": 0, "MAX_NATSCA": 20, "MIN_AREAKM": 1019, "MAX_AREAKM": 1473, "MIN_AREAMI": 393, "MAX_AREAMI": 569, "MIN_PERKM": 1307, "MAX_PERKM": 1915, "MIN_PERMI": 812, "MAX_PERMI": 1190, "MIN_BBXMIN": 114.916667, "MAX_BBXMIN": 115.294442, "MIN_BBXMAX": 116.008333, "MAX_BBXMAX": 116.008333, "MIN_BBYMIN": 27.783333, "MAX_BBYMIN": 27.958333, "MIN_BBYMAX": 28.472452, "MAX_BBYMAX": 28.472452, "MEAN_BBXC": 115.608895, "MEAN_BBYC": 28.192793, "TIMEZONE": "Asia/Shanghai", "UN_FID": 0, "POP1950": 0, "POP1955": 0, "POP1960": 0, "POP1965": 0, "POP1970": 0, "POP1975": 0, "POP1980": 0, "POP1985": 0, "POP1990": 0, "POP1995": 0, "POP2000": 0, "POP2005": 0, "POP2010": 0, "POP2015": 0, "POP2020": 0, "POP2025": 0, "POP2050": 0, "MIN_ZOOM": 6.7, "WIKIDATAID": "Q1375351", "WOF_ID": 890512271, "CAPALT": 0, "NAME_EN": "Fengcheng", "NAME_DE": "Fengcheng", "NAME_ES": "Fengcheng", "NAME_FR": "Fengcheng", "NAME_PT": "Fengcheng", "NAME_RU": "Фэнчэн", "NAME_ZH": "丰城", "LABEL": null, "NAME_AR": "فنغتشنغ", "NAME_BN": "ফেংগচেন", "NAME_EL": "Φένγκτσενγκ", "NAME_HI": "फ़ेंगचेंग", "NAME_HU": "Fengcheng", "NAME_ID": "Fengcheng", "NAME_IT": "Fengcheng", "NAME_JA": "豊城市", "NAME_KO": "펑청시", "NAME_NL": "Fengcheng", "NAME_PL": "Fengcheng", "NAME_SV": "Fengcheng", "NAME_TR": "Fengcheng", "NAME_VI": "Phong Thành", "NE_ID": 1159140973, "NAME_FA": "فنگچنگ", "NAME_HE": "פנגצ'נג", "NAME_UK": "Фенчен", "NAME_UR": "فینگچینگ", "NAME_ZHT": "豐城市", "GEONAMESID": 1806248, "FCLASS_ISO": null, "FCLASS_US": null, "FCLASS_FR": null, "FCLASS_RU": null, "FCLASS_ES": null, "FCLASS_CN": null, "FCLASS_TW": null, "FCLASS_IN": null, "FCLASS_NP": null, "FCLASS_PK": null, "FCLASS_DE": null, "FCLASS_GB": null, "FCLASS_BR": null, "FCLASS_IL": null, "FCLASS_PS": null, "FCLASS_SA": null, "FCLASS_EG": null, "FCLASS_MA": null, "FCLASS_PT": null, "FCLASS_AR": null, "FCLASS_JP": null, "FCLASS_KO": null, "FCLASS_VN": null, "FCLASS_TR": null, "FCLASS_ID": null, "FCLASS_PL": null, "FCLASS_GR": null, "FCLASS_IT": null, "FCLASS_NL": null, "FCLASS_SE": null, "FCLASS_BD": null, "FCLASS_UA": null, "FCLASS_TLC": null}, "bbox": [115.770029, 28.200409, 115.770029, 28.200409], "geometry": {"type": "Point", "coordinates": [115.770029, 28.200409]}}, {"type": "Feature", "properties": {"SCALERANK": 7, "NATSCALE": 20, "LABELRANK": 1, "FEATURECLA": "Populated place", "NAME": "Jian", "NAMEPAR": null, "NAMEALT": null, "NAMEASCII": "Jian", "ADM0CAP": 0, "CAPIN": null, "WORLDCITY": 0, "MEGACITY": 0, "SOV0NAME": "China", "SOV_A3": "CHN", "ADM0NAME": "China", "ADM0_A3": "CHN", "ADM1NAME": "Jiangxi", "ISO_A2": "CN", "NOTE": null, "LATITUDE": 27.130423, "LONGITUDE": 114.999998, "POP_MAX": 520248, "POP_MIN": 460194, "POP_OTHER": 516188, "RANK_MAX": 11, "RANK_MIN": 10, "MEGANAME": null, "LS_NAME": "Jian", "MAX_POP10": 520248, "MAX_POP20": 520248, "MAX_POP50": 0, "MAX_POP300": 0, "MAX_POP310": 0, "MAX_NATSCA": 20, "MIN_AREAKM": 130, "MAX_AREAKM": 130, "MIN_AREAMI": 50, "MAX_AREAMI": 50, "MIN_PERKM": 117, "MAX_PERKM": 117, "MIN_PERMI": 73, "MAX_PERMI": 73, "MIN_BBXMIN": 114.916667, "MAX_BBXMIN": 114.916667, "MIN_BBXMAX": 115.091667, "MAX_BBXMAX": 115.091667, "MIN_BBYMIN": 27.041667, "MAX_BBYMIN": 27.041667, "MIN_BBYMAX": 27.183333, "MAX_BBYMAX": 27.183333, "MEAN_BBXC": 115.002753, "MEAN_BBYC": 27.106993, "TIMEZONE": "Asia/Shanghai", "UN_FID": 0, "POP1950": 0, "POP1955": 0, "POP1960": 0, "POP1965": 0, "POP1970": 0, "POP1975": 0, "POP1980": 0, "POP1985": 0, "POP1990": 0, "POP1995": 0, "POP2000": 0, "POP2005": 0, "POP2010": 0, "POP2015": 0, "POP2020": 0, "POP2025": 0, "POP2050": 0, "MIN_ZOOM": 6.7, "WIKIDATAID": "Q363262", "WOF_ID": 102027491, "CAPALT": 0, "NAME_EN": "Ji'an", "NAME_DE": "Ji’an", "NAME_ES": "Ji'an", "NAME_FR": "Ji'an", "NAME_PT": "Ji'an", "NAME_RU": "Цзиань", "NAME_ZH": "吉安", "LABEL": null, "NAME_AR": "جيآن", "NAME_BN": "চিয়ান", "NAME_EL": "Τζιάν", "NAME_HI": "जियां", "NAME_HU": "Jian", "NAME_ID": "Ji'an", "NAME_IT": "Ji'an", "NAME_JA": "吉安市", "NAME_KO": "지안시", "NAME_NL": "Ji'an", "NAME_PL": "Ji'an", "NAME_SV": "Ji'an", "NAME_TR": "Ji'an", "NAME_VI": "Cát An", "NE_ID": 1159140977, "NAME_FA": "ژی ان", "NAME_HE": "ג'יאן", "NAME_UK": "Цзіань", "NAME_UR": "جیآن", "NAME_ZHT": "吉安市", "GEONAMESID": 1806445, "FCLASS_ISO": null, "FCLASS_US": null, "FCLASS_FR": null, "FCLASS_RU": null, "FCLASS_ES": null, "FCLASS_CN": null, "FCLASS_TW": null, "FCLASS_IN": null, "FCLASS_NP": null, "FCLASS_PK": null, "FCLASS_DE": null, "FCLASS_GB": null, "FCLASS_BR": null, "FCLASS_IL": null, "FCLASS_PS": null, "FCLASS_SA": null, "FCLASS_EG": null, "FCLASS_MA": null, "FCLASS_PT": null, "FCLASS_AR": null, "FCLASS_JP": null, "FCLASS_KO": null, "FCLASS_VN": null, "FCLASS_TR": null, "FCLASS_ID": null, "FCLASS_PL": null, "FCLASS_GR": null, "FCLASS_IT": null, "FCLASS_NL": null, "FCLASS_SE": null, "FCLASS_BD": null, "FCLASS_UA": null, "FCLASS_TLC": null}, "bbox": [114.999998, 27.130423, 114.999998, 27.130423], "geometry": {"type": "Point", "coordinates": [114.999998, 27.130423]}}, {"type": "Feature", "properties": {"SCALERANK": 7, "NATSCALE": 20, "LABELRANK": 1, "FEATURECLA": "Populated place", "NAME": "Shangrao", "NAMEPAR": null, "NAMEALT": null, "NAMEASCII": "Shangrao", "ADM0CAP": 0, "CAPIN": null, "WORLDCITY": 0, "MEGACITY": 0, "SOV0NAME": "China", "SOV_A3": "CHN", "ADM0NAME": "China", "ADM0_A3": "CHN", "ADM1NAME": "Jiangxi", "ISO_A2": "CN", "NOTE": null, "LATITUDE": 28.470393, "LONGITUDE": 117.969998, "POP_MAX": 1144577, "POP_MIN": 700266, "POP_OTHER": 1107384, "RANK_MAX": 12, "RANK_MIN": 11, "MEGANAME": null, "LS_NAME": "Shangrao", "MAX_POP10": 1144577, "MAX_POP20": 1144577, "MAX_POP50": 0, "MAX_POP300": 0, "MAX_POP310": 0, "MAX_NATSCA": 20, "MIN_AREAKM": 531, "MAX_AREAKM": 531, "MIN_AREAMI": 205, "MAX_AREAMI": 205, "MIN_PERKM": 721, "MAX_PERKM": 721, "MIN_PERMI": 448, "MAX_PERMI": 448, "MIN_BBXMIN": 117.675, "MAX_BBXMIN": 117.675, "MIN_BBXMAX": 118.358333, "MAX_BBXMAX": 118.358333, "MIN_BBYMIN": 28.283333, "MAX_BBYMIN": 28.283333, "MIN_BBYMAX": 28.525, "MAX_BBYMAX": 28.525, "MEAN_BBXC": 118.038045, "MEAN_BBYC": 28.402202, "TIMEZONE": "Asia/Shanghai", "UN_FID": 0, "POP1950": 0, "POP1955": 0, "POP1960": 0, "POP1965": 0, "POP1970": 0, "POP1975": 0, "POP1980": 0, "POP1985": 0, "POP1990": 0, "POP1995": 0, "POP2000": 0, "POP2005": 0, "POP2010": 0, "POP2015": 0, "POP2020": 0, "POP2025": 0, "POP2050": 0, "MIN_ZOOM": 6.1, "WIKIDATAID": "Q363479", "WOF_ID": 102026985, "CAPALT": 0, "NAME_EN": "Shangrao", "NAME_DE": "Shangrao", "NAME_ES": "Shangrao", "NAME_FR": "Shangrao", "NAME_PT": "Shangrao", "NAME_RU": "Шанжао", "NAME_ZH": "上饶", "LABEL": null, "NAME_AR": "شانغراو", "NAME_BN": "সাংরাও", "NAME_EL": "Σανγκράο", "NAME_HI": "शङ्ग्रो", "NAME_HU": "Shangrao", "NAME_ID": "Shangrao", "NAME_IT": "Shangrao", "NAME_JA": "上饒市", "NAME_KO": "상라오시", "NAME_NL": "Shangrao", "NAME_PL": "Shangrao", "NAME_SV": "Shangrao", "NAME_TR": "Shangrao", "NAME_VI": "Thượng Nhiêu", "NE_ID": 1159140981, "NAME_FA": "شانگراو", "NAME_HE": "שאנגז'או", "NAME_UK": "Шанжао", "NAME_UR": "شانگراو", "NAME_ZHT": "上饒市", "GEONAMESID": 1787858, "FCLASS_ISO": null, "FCLASS_US": null, "FCLASS_FR": null, "FCLASS_RU": null, "FCLASS_ES": null, "FCLASS_CN": null, "FCLASS_TW": null, "FCLASS_IN": null, "FCLASS_NP": null, "FCLASS_PK": null, "FCLASS_DE": null, "FCLASS_GB": null, "FCLASS_BR": null, "FCLASS_IL": null, "FCLASS_PS": null, "FCLASS_SA": null, "FCLASS_EG": null, "FCLASS_MA": null, "FCLASS_PT": null, "FCLASS_AR": null, "FCLASS_JP": null, "FCLASS_KO": null, "FCLASS_VN": null, "FCLASS_TR": null, "FCLASS_ID": null, "FCLASS_PL": null, "FCLASS_GR": null, "FCLASS_IT": null, "FCLASS_NL": null, "FCLASS_SE": null, "FCLASS_BD": null, "FCLASS_UA": null, "FCLASS_TLC": null}, "bbox": [117.969998, 28.470393, 117.969998, 28.470393], "geometry": {"type": "Point", "coordinates": [117.969998, 28.470393]}}, {"type": "Feature", "properties": {"SCALERANK": 7, "NATSCALE": 20, "LABELRANK": 1, "FEATURECLA": "Populated place", "NAME": "Jingdezhen", "NAMEPAR": null, "NAMEALT": null, "NAMEASCII": "Jingdezhen", "ADM0CAP": 0, "CAPIN": null, "WORLDCITY": 0, "MEGACITY": 0, "SOV0NAME": "China", "SOV_A3": "CHN", "ADM0NAME": "China", "ADM0_A3": "CHN", "ADM1NAME": "Jiangxi", "ISO_A2": "CN", "NOTE": null, "LATITUDE": 29.270421, "LONGITUDE": 117.18002, "POP_MAX": 457298, "POP_MIN": 310565, "POP_OTHER": 456836, "RANK_MAX": 10, "RANK_MIN": 10, "MEGANAME": null, "LS_NAME": "Jingdezhen", "MAX_POP10": 457298, "MAX_POP20": 457298, "MAX_POP50": 0, "MAX_POP300": 0, "MAX_POP310": 0, "MAX_NATSCA": 20, "MIN_AREAKM": 106, "MAX_AREAKM": 106, "MIN_AREAMI": 41, "MAX_AREAMI": 41, "MIN_PERKM": 123, "MAX_PERKM": 123, "MIN_PERMI": 77, "MAX_PERMI": 77, "MIN_BBXMIN": 117.133333, "MAX_BBXMIN": 117.133333, "MIN_BBXMAX": 117.325, "MAX_BBXMAX": 117.325, "MIN_BBYMIN": 29.233333, "MAX_BBYMIN": 29.233333, "MIN_BBYMAX": 29.416667, "MAX_BBYMAX": 29.416667, "MEAN_BBXC": 117.200469, "MEAN_BBYC": 29.312031, "TIMEZONE": "Asia/Shanghai", "UN_FID": 0, "POP1950": 0, "POP1955": 0, "POP1960": 0, "POP1965": 0, "POP1970": 0, "POP1975": 0, "POP1980": 0, "POP1985": 0, "POP1990": 0, "POP1995": 0, "POP2000": 0, "POP2005": 0, "POP2010": 0, "POP2015": 0, "POP2020": 0, "POP2025": 0, "POP2050": 0, "MIN_ZOOM": 6.1, "WIKIDATAID": "Q34405", "WOF_ID": 102027455, "CAPALT": 0, "NAME_EN": "Jingdezhen", "NAME_DE": "Jingdezhen", "NAME_ES": "Jingdezhen", "NAME_FR": "Jingdezhen", "NAME_PT": "Jingdezhen", "NAME_RU": "Цзиндэчжэнь", "NAME_ZH": "景德镇", "LABEL": null, "NAME_AR": "جينغدتشن", "NAME_BN": "চিংতচেন", "NAME_EL": "Τζινγκντεσέν", "NAME_HI": "जिंग्दज़हेन", "NAME_HU": "Jingdezhen", "NAME_ID": "Jingdezhen", "NAME_IT": "Jingdezhen", "NAME_JA": "景徳鎮市", "NAME_KO": "징더전시", "NAME_NL": "Jingdezhen", "NAME_PL": "Jingdezhen", "NAME_SV": "Jingdezhen", "NAME_TR": "Jingdezhen", "NAME_VI": "Cảnh Đức Trấn", "NE_ID": 1159140985, "NAME_FA": "جینگدیجن", "NAME_HE": "ג'ינגז'ן", "NAME_UK": "Дзіньдечжень", "NAME_UR": "جینگدیذین", "NAME_ZHT": "景德鎮市", "GEONAMESID": 1805680, "FCLASS_ISO": null, "FCLASS_US": null, "FCLASS_FR": null, "FCLASS_RU": null, "FCLASS_ES": null, "FCLASS_CN": null, "FCLASS_TW": null, "FCLASS_IN": null, "FCLASS_NP": null, "FCLASS_PK": null, "FCLASS_DE": null, "FCLASS_GB": null, "FCLASS_BR": null, "FCLASS_IL": null, "FCLASS_PS": null, "FCLASS_SA": null, "FCLASS_EG": null, "FCLASS_MA": null, "FCLASS_PT": null, "FCLASS_AR": null, "FCLASS_JP": null, "FCLASS_KO": null, "FCLASS_VN": null, "FCLASS_TR": null, "FCLASS_ID": null, "FCLASS_PL": null, "FCLASS_GR": null, "FCLASS_IT": null, "FCLASS_NL": null, "FCLASS_SE": null, "FCLASS_BD": null, "FCLASS_UA": null, "FCLASS_TLC": null}, "bbox": [117.18002, 29.270421, 117.18002, 29.270421], "geometry": {"type": "Point", "coordinates": [117.18002, 29.270421]}}, {"type": "Feature", "properties": {"SCALERANK": 6, "NATSCALE": 30, "LABELRANK": 1, "FEATURECLA": "Populated place", "NAME": "Huangshi", "NAMEPAR": null, "NAMEALT": null, "NAMEASCII": "Huangshi", "ADM0CAP": 0, "CAPIN": null, "WORLDCITY": 0, "MEGACITY": 0, "SOV0NAME": "China", "SOV_A3": "CHN", "ADM0NAME": "China", "ADM0_A3": "CHN", "ADM1NAME": "Hubei", "ISO_A2": "CN", "NOTE": null, "LATITUDE": 30.220002, "LONGITUDE": 115.099992, "POP_MAX": 688090, "POP_MIN": 688090, "POP_OTHER": 4336399, "RANK_MAX": 11, "RANK_MIN": 11, "MEGANAME": null, "LS_NAME": "Huangshi", "MAX_POP10": 4439809, "MAX_POP20": 4439809, "MAX_POP50": 0, "MAX_POP300": 0, "MAX_POP310": 0, "MAX_NATSCA": 20, "MIN_AREAKM": 3557, "MAX_AREAKM": 3557, "MIN_AREAMI": 1373, "MAX_AREAMI": 1373, "MIN_PERKM": 3205, "MAX_PERKM": 3205, "MIN_PERMI": 1991, "MAX_PERMI": 1991, "MIN_BBXMIN": 114.505028, "MAX_BBXMIN": 114.505028, "MIN_BBXMAX": 115.825, "MAX_BBXMAX": 115.825, "MIN_BBYMIN": 29.908333, "MAX_BBYMIN": 29.908333, "MIN_BBYMAX": 30.724432, "MAX_BBYMAX": 30.724432, "MEAN_BBXC": 115.102382, "MEAN_BBYC": 30.337977, "TIMEZONE": "Asia/Shanghai", "UN_FID": 0, "POP1950": 0, "POP1955": 0, "POP1960": 0, "POP1965": 0, "POP1970": 0, "POP1975": 0, "POP1980": 0, "POP1985": 0, "POP1990": 0, "POP1995": 0, "POP2000": 0, "POP2005": 0, "POP2010": 0, "POP2015": 0, "POP2020": 0, "POP2025": 0, "POP2050": 0, "MIN_ZOOM": 6, "WIKIDATAID": "Q71204", "WOF_ID": 102027521, "CAPALT": 0, "NAME_EN": "Huangshi", "NAME_DE": "Huangshi", "NAME_ES": "Huangshi", "NAME_FR": "Huangshi", "NAME_PT": "Huangshi", "NAME_RU": "Хуанши", "NAME_ZH": "黄石", "LABEL": null, "NAME_AR": "هوانغشي", "NAME_BN": "হুয়াংশি", "NAME_EL": "Χουάνγκσι", "NAME_HI": "हुआंग्शी", "NAME_HU": "Huangshi", "NAME_ID": "Huangshi", "NAME_IT": "Huangshi", "NAME_JA": "黄石市", "NAME_KO": "황스시", "NAME_NL": "Huangshi", "NAME_PL": "Huangshi", "NAME_SV": "Huangshi", "NAME_TR": "Huangshi", "NAME_VI": "Hoàng Thạch", "NE_ID": 1159147003, "NAME_FA": "هوانگشی", "NAME_HE": "חואנגשי", "NAME_UK": "Хуанши", "NAME_UR": "ہوانگشی", "NAME_ZHT": "黃石市", "GEONAMESID": 1807234, "FCLASS_ISO": null, "FCLASS_US": null, "FCLASS_FR": null, "FCLASS_RU": null, "FCLASS_ES": null, "FCLASS_CN": null, "FCLASS_TW": null, "FCLASS_IN": null, "FCLASS_NP": null, "FCLASS_PK": null, "FCLASS_DE": null, "FCLASS_GB": null, "FCLASS_BR": null, "FCLASS_IL": null, "FCLASS_PS": null, "FCLASS_SA": null, "FCLASS_EG": null, "FCLASS_MA": null, "FCLASS_PT": null, "FCLASS_AR": null, "FCLASS_JP": null, "FCLASS_KO": null, "FCLASS_VN": null, "FCLASS_TR": null, "FCLASS_ID": null, "FCLASS_PL": null, "FCLASS_GR": null, "FCLASS_IT": null, "FCLASS_NL": null, "FCLASS_SE": null, "FCLASS_BD": null, "FCLASS_UA": null, "FCLASS_TLC": null}, "bbox": [115.099992, 30.220002, 115.099992, 30.220002], "geometry": {"type": "Point", "coordinates": [115.099992, 30.220002]}}, {"type": "Feature", "properties": {"SCALERANK": 6, "NATSCALE": 30, "LABELRANK": 1, "FEATURECLA": "Populated place", "NAME": "Xinyu", "NAMEPAR": null, "NAMEALT": null, "NAMEASCII": "Xinyu", "ADM0CAP": 0, "CAPIN": null, "WORLDCITY": 0, "MEGACITY": 1, "SOV0NAME": "China", "SOV_A3": "CHN", "ADM0NAME": "China", "ADM0_A3": "CHN", "ADM1NAME": "Jiangxi", "ISO_A2": "CN", "NOTE": null, "LATITUDE": 27.801966, "LONGITUDE": 114.928031, "POP_MAX": 913000, "POP_MIN": 97480, "POP_OTHER": 699290, "RANK_MAX": 11, "RANK_MIN": 8, "MEGANAME": "Xinyu", "LS_NAME": "Xinyu", "MAX_POP10": 749664, "MAX_POP20": 0, "MAX_POP50": 0, "MAX_POP300": 0, "MAX_POP310": 0, "MAX_NATSCA": 10, "MIN_AREAKM": 620, "MAX_AREAKM": 620, "MIN_AREAMI": 239, "MAX_AREAMI": 239, "MIN_PERKM": 739, "MAX_PERKM": 739, "MIN_PERMI": 459, "MAX_PERMI": 459, "MIN_BBXMIN": 114.858333, "MAX_BBXMIN": 114.858333, "MIN_BBXMAX": 115.35, "MAX_BBXMAX": 115.35, "MIN_BBYMIN": 27.75, "MAX_BBYMIN": 27.75, "MIN_BBYMAX": 28.233333, "MAX_BBYMAX": 28.233333, "MEAN_BBXC": 115.095481, "MEAN_BBYC": 27.945611, "TIMEZONE": "Asia/Shanghai", "UN_FID": 133, "POP1950": 234, "POP1955": 264, "POP1960": 297, "POP1965": 335, "POP1970": 377, "POP1975": 425, "POP1980": 479, "POP1985": 540, "POP1990": 608, "POP1995": 685, "POP2000": 772, "POP2005": 870, "POP2010": 913, "POP2015": 981, "POP2020": 1095, "POP2025": 1199, "POP2050": 1285, "MIN_ZOOM": 6, "WIKIDATAID": "Q362959", "WOF_ID": 102026991, "CAPALT": 0, "NAME_EN": "Xinyu", "NAME_DE": "Xinyu", "NAME_ES": "Xinyu", "NAME_FR": "Xinyu", "NAME_PT": "Xinyu", "NAME_RU": "Синьюй", "NAME_ZH": "新余", "LABEL": null, "NAME_AR": "شينيو", "NAME_BN": "জিনউু", "NAME_EL": "Ξινγού", "NAME_HI": "सिन्यू", "NAME_HU": "Xinyu", "NAME_ID": "Xinyu", "NAME_IT": "Xinyu", "NAME_JA": "新余市", "NAME_KO": "신위시", "NAME_NL": "Xinyu", "NAME_PL": "Xinyu", "NAME_SV": "Xinyu", "NAME_TR": "Xinyu", "NAME_VI": "Tân Dư", "NE_ID": 1159147093, "NAME_FA": "شینیو", "NAME_HE": "קסיניו", "NAME_UK": "Сіньюй", "NAME_UR": "شینیو", "NAME_ZHT": "新余市", "GEONAMESID": 1788508, "FCLASS_ISO": null, "FCLASS_US": null, "FCLASS_FR": null, "FCLASS_RU": null, "FCLASS_ES": null, "FCLASS_CN": null, "FCLASS_TW": null, "FCLASS_IN": null, "FCLASS_NP": null, "FCLASS_PK": null, "FCLASS_DE": null, "FCLASS_GB": null, "FCLASS_BR": null, "FCLASS_IL": null, "FCLASS_PS": null, "FCLASS_SA": null, "FCLASS_EG": null, "FCLASS_MA": null, "FCLASS_PT": null, "FCLASS_AR": null, "FCLASS_JP": null, "FCLASS_KO": null, "FCLASS_VN": null, "FCLASS_TR": null, "FCLASS_ID": null, "FCLASS_PL": null, "FCLASS_GR": null, "FCLASS_IT": null, "FCLASS_NL": null, "FCLASS_SE": null, "FCLASS_BD": null, "FCLASS_UA": null, "FCLASS_TLC": null}, "bbox": [114.928031, 27.801966, 114.928031, 27.801966], "geometry": {"type": "Point", "coordinates": [114.928031, 27.801966]}}, {"type": "Feature", "properties": {"SCALERANK": 6, "NATSCALE": 30, "LABELRANK": 1, "FEATURECLA": "Populated place", "NAME": "Ganzhou", "NAMEPAR": null, "NAMEALT": null, "NAMEASCII": "Ganzhou", "ADM0CAP": 0, "CAPIN": null, "WORLDCITY": 0, "MEGACITY": 0, "SOV0NAME": "China", "SOV_A3": "CHN", "ADM0NAME": "China", "ADM0_A3": "CHN", "ADM1NAME": "Jiangxi", "ISO_A2": "CN", "NOTE": null, "LATITUDE": 25.91998, "LONGITUDE": 114.950027, "POP_MAX": 1500000, "POP_MIN": 932269, "POP_OTHER": 0, "RANK_MAX": 12, "RANK_MIN": 11, "MEGANAME": null, "LS_NAME": "Ganzhou", "MAX_POP10": 932269, "MAX_POP20": 932269, "MAX_POP50": 0, "MAX_POP300": 0, "MAX_POP310": 0, "MAX_NATSCA": 20, "MIN_AREAKM": 435, "MAX_AREAKM": 435, "MIN_AREAMI": 168, "MAX_AREAMI": 168, "MIN_PERKM": 0, "MAX_PERKM": 0, "MIN_PERMI": 0, "MAX_PERMI": 0, "MIN_BBXMIN": 114.608333, "MAX_BBXMIN": 114.608333, "MIN_BBXMAX": 115.033333, "MAX_BBXMAX": 115.033333, "MIN_BBYMIN": 25.625, "MAX_BBYMIN": 25.625, "MIN_BBYMAX": 25.933333, "MAX_BBYMAX": 25.933333, "MEAN_BBXC": 114.818011, "MEAN_BBYC": 25.784634, "TIMEZONE": null, "UN_FID": 0, "POP1950": 0, "POP1955": 0, "POP1960": 0, "POP1965": 0, "POP1970": 0, "POP1975": 0, "POP1980": 0, "POP1985": 0, "POP1990": 0, "POP1995": 0, "POP2000": 0, "POP2005": 0, "POP2010": 0, "POP2015": 0, "POP2020": 0, "POP2025": 0, "POP2050": 0, "MIN_ZOOM": 6, "WIKIDATAID": "Q363166", "WOF_ID": 1141908653, "CAPALT": 0, "NAME_EN": "Ganzhou", "NAME_DE": "Ganzhou", "NAME_ES": "Ganzhou", "NAME_FR": "Ganzhou", "NAME_PT": "Ganzhou", "NAME_RU": "Ганьчжоу", "NAME_ZH": "赣州", "LABEL": null, "NAME_AR": "غانتشو", "NAME_BN": "কানচৌ", "NAME_EL": "Γκανζού", "NAME_HI": "गाँज़होउ", "NAME_HU": "Kancsou", "NAME_ID": "Ganzhou", "NAME_IT": "Ganzhou", "NAME_JA": "贛州市", "NAME_KO": "간저우시", "NAME_NL": "Ganzhou", "NAME_PL": "Ganzhou", "NAME_SV": "Ganzhou", "NAME_TR": "Ganzhou", "NAME_VI": "Cám Châu", "NE_ID": 1159147095, "NAME_FA": "گانژوو", "NAME_HE": "גאנג'ואו", "NAME_UK": "Ганьчжоу", "NAME_UR": "گانژوو", "NAME_ZHT": "贛州市", "GEONAMESID": -1, "FCLASS_ISO": null, "FCLASS_US": null, "FCLASS_FR": null, "FCLASS_RU": null, "FCLASS_ES": null, "FCLASS_CN": null, "FCLASS_TW": null, "FCLASS_IN": null, "FCLASS_NP": null, "FCLASS_PK": null, "FCLASS_DE": null, "FCLASS_GB": null, "FCLASS_BR": null, "FCLASS_IL": null, "FCLASS_PS": null, "FCLASS_SA": null, "FCLASS_EG": null, "FCLASS_MA": null, "FCLASS_PT": null, "FCLASS_AR": null, "FCLASS_JP": null, "FCLASS_KO": null, "FCLASS_VN": null, "FCLASS_TR": null, "FCLASS_ID": null, "FCLASS_PL": null, "FCLASS_GR": null, "FCLASS_IT": null, "FCLASS_NL": null, "FCLASS_SE": null, "FCLASS_BD": null, "FCLASS_UA": null, "FCLASS_TLC": null}, "bbox": [114.950027, 25.91998, 114.950027, 25.91998], "geometry": {"type": "Point", "coordinates": [114.950027, 25.91998]}}, {"type": "Feature", "properties": {"SCALERANK": 6, "NATSCALE": 30, "LABELRANK": 1, "FEATURECLA": "Populated place", "NAME": "Jiujiang", "NAMEPAR": null, "NAMEALT": null, "NAMEASCII": "Jiujiang", "ADM0CAP": 0, "CAPIN": null, "WORLDCITY": 0, "MEGACITY": 0, "SOV0NAME": "China", "SOV_A3": "CHN", "ADM0NAME": "China", "ADM0_A3": "CHN", "ADM1NAME": "Jiangxi", "ISO_A2": "CN", "NOTE": null, "LATITUDE": 29.72998, "LONGITUDE": 115.980042, "POP_MAX": 545616, "POP_MIN": 545616, "POP_OTHER": 525421, "RANK_MAX": 11, "RANK_MIN": 11, "MEGANAME": null, "LS_NAME": "Jiujiang", "MAX_POP10": 449343, "MAX_POP20": 449343, "MAX_POP50": 0, "MAX_POP300": 0, "MAX_POP310": 0, "MAX_NATSCA": 20, "MIN_AREAKM": 184, "MAX_AREAKM": 184, "MIN_AREAMI": 71, "MAX_AREAMI": 71, "MIN_PERKM": 203, "MAX_PERKM": 203, "MIN_PERMI": 126, "MAX_PERMI": 126, "MIN_BBXMIN": 115.858333, "MAX_BBXMIN": 115.858333, "MIN_BBXMAX": 116.15, "MAX_BBXMAX": 116.15, "MIN_BBYMIN": 29.55, "MAX_BBYMIN": 29.55, "MIN_BBYMAX": 29.766667, "MAX_BBYMAX": 29.766667, "MEAN_BBXC": 115.986387, "MEAN_BBYC": 29.674376, "TIMEZONE": "Asia/Shanghai", "UN_FID": 0, "POP1950": 0, "POP1955": 0, "POP1960": 0, "POP1965": 0, "POP1970": 0, "POP1975": 0, "POP1980": 0, "POP1985": 0, "POP1990": 0, "POP1995": 0, "POP2000": 0, "POP2005": 0, "POP2010": 0, "POP2015": 0, "POP2020": 0, "POP2025": 0, "POP2050": 0, "MIN_ZOOM": 6, "WIKIDATAID": "Q216077", "WOF_ID": 102027435, "CAPALT": 0, "NAME_EN": "Jiujiang", "NAME_DE": "Jiujiang", "NAME_ES": "Jiujiang", "NAME_FR": "Jiujiang", "NAME_PT": "Jiujiang", "NAME_RU": "Цзюцзян", "NAME_ZH": "九江", "LABEL": null, "NAME_AR": "جيوجيانغ", "NAME_BN": "চিউচিয়াং", "NAME_EL": "Τζιουτζιάνγκ", "NAME_HI": "जिउजिआन्ग", "NAME_HU": "Csiucsiang", "NAME_ID": "Jiujiang", "NAME_IT": "Jiujiang", "NAME_JA": "九江市", "NAME_KO": "주장시", "NAME_NL": "Jiujiang", "NAME_PL": "Jiujiang", "NAME_SV": "Jiujiang", "NAME_TR": "Ciuciang", "NAME_VI": "Cửu Giang", "NE_ID": 1159147097, "NAME_FA": "جیاجیانگ", "NAME_HE": "ג'יוג'יאנג", "NAME_UK": "Цзюцзян", "NAME_UR": "جیوجیانگ", "NAME_ZHT": "九江市", "GEONAMESID": 1805179, "FCLASS_ISO": null, "FCLASS_US": null, "FCLASS_FR": null, "FCLASS_RU": null, "FCLASS_ES": null, "FCLASS_CN": null, "FCLASS_TW": null, "FCLASS_IN": null, "FCLASS_NP": null, "FCLASS_PK": null, "FCLASS_DE": null, "FCLASS_GB": null, "FCLASS_BR": null, "FCLASS_IL": null, "FCLASS_PS": null, "FCLASS_SA": null, "FCLASS_EG": null, "FCLASS_MA": null, "FCLASS_PT": null, "FCLASS_AR": null, "FCLASS_JP": null, "FCLASS_KO": null, "FCLASS_VN": null, "FCLASS_TR": null, "FCLASS_ID": null, "FCLASS_PL": null, "FCLASS_GR": null, "FCLASS_IT": null, "FCLASS_NL": null, "FCLASS_SE": null, "FCLASS_BD": null, "FCLASS_UA": null, "FCLASS_TLC": null}, "bbox": [115.980042, 29.72998, 115.980042, 29.72998], "geometry": {"type": "Point", "coordinates": [115.980042, 29.72998]}}, {"type": "Feature", "properties": {"SCALERANK": 6, "NATSCALE": 30, "LABELRANK": 1, "FEATURECLA": "Populated place", "NAME": "Yichun", "NAMEPAR": null, "NAMEALT": "Yichun, Jiangxi", "NAMEASCII": "Yichun", "ADM0CAP": 0, "CAPIN": null, "WORLDCITY": 0, "MEGACITY": 1, "SOV0NAME": "China", "SOV_A3": "CHN", "ADM0NAME": "China", "ADM0_A3": "CHN", "ADM1NAME": "Jiangxi", "ISO_A2": "CN", "NOTE": null, "LATITUDE": 27.835279, "LONGITUDE": 114.398054, "POP_MAX": 982000, "POP_MIN": 982000, "POP_OTHER": 0, "RANK_MAX": 11, "RANK_MIN": 11, "MEGANAME": "Yichun, Jiangxi", "LS_NAME": null, "MAX_POP10": 0, "MAX_POP20": 0, "MAX_POP50": 0, "MAX_POP300": 0, "MAX_POP310": 0, "MAX_NATSCA": 0, "MIN_AREAKM": 0, "MAX_AREAKM": 0, "MIN_AREAMI": 0, "MAX_AREAMI": 0, "MIN_PERKM": 0, "MAX_PERKM": 0, "MIN_PERMI": 0, "MAX_PERMI": 0, "MIN_BBXMIN": 0, "MAX_BBXMIN": 0, "MIN_BBXMAX": 0, "MAX_BBXMAX": 0, "MIN_BBYMIN": 0, "MAX_BBYMIN": 0, "MIN_BBYMAX": 0, "MAX_BBYMAX": 0, "MEAN_BBXC": 0, "MEAN_BBYC": 0, "TIMEZONE": "Asia/Shanghai", "UN_FID": 141, "POP1950": 335, "POP1955": 384, "POP1960": 440, "POP1965": 505, "POP1970": 579, "POP1975": 664, "POP1980": 761, "POP1985": 816, "POP1990": 836, "POP1995": 876, "POP2000": 917, "POP2005": 961, "POP2010": 982, "POP2015": 1025, "POP2020": 1127, "POP2025": 1231, "POP2050": 1320, "MIN_ZOOM": 6, "WIKIDATAID": "Q363326", "WOF_ID": 102026959, "CAPALT": 0, "NAME_EN": "Yichun", "NAME_DE": "Yichun", "NAME_ES": "Yichun", "NAME_FR": "Yichun", "NAME_PT": "Yichun", "NAME_RU": "Ичунь", "NAME_ZH": "宜春", "LABEL": null, "NAME_AR": "ييتشون", "NAME_BN": "ইচুন", "NAME_EL": "Γιτσούν", "NAME_HI": "यिचुन", "NAME_HU": "Yichun", "NAME_ID": "Yichun", "NAME_IT": "Yichun", "NAME_JA": "宜春市", "NAME_KO": "이춘시", "NAME_NL": "Yichun", "NAME_PL": "Yichun", "NAME_SV": "Yichun", "NAME_TR": "Yichun", "NAME_VI": "Nghi Xuân", "NE_ID": 1159148467, "NAME_FA": "یچان", "NAME_HE": "ייצ'ון", "NAME_UK": "Ічунь", "NAME_UR": "یکھن", "NAME_ZHT": "宜春市", "GEONAMESID": 1786746, "FCLASS_ISO": null, "FCLASS_US": null, "FCLASS_FR": null, "FCLASS_RU": null, "FCLASS_ES": null, "FCLASS_CN": null, "FCLASS_TW": null, "FCLASS_IN": null, "FCLASS_NP": null, "FCLASS_PK": null, "FCLASS_DE": null, "FCLASS_GB": null, "FCLASS_BR": null, "FCLASS_IL": null, "FCLASS_PS": null, "FCLASS_SA": null, "FCLASS_EG": null, "FCLASS_MA": null, "FCLASS_PT": null, "FCLASS_AR": null, "FCLASS_JP": null, "FCLASS_KO": null, "FCLASS_VN": null, "FCLASS_TR": null, "FCLASS_ID": null, "FCLASS_PL": null, "FCLASS_GR": null, "FCLASS_IT": null, "FCLASS_NL": null, "FCLASS_SE": null, "FCLASS_BD": null, "FCLASS_UA": null, "FCLASS_TLC": null}, "bbox": [114.398054, 27.835279, 114.398054, 27.835279], "geometry": {"type": "Point", "coordinates": [114.398054, 27.835279]}}, {"type": "Feature", "properties": {"SCALERANK": 4, "NATSCALE": 50, "LABELRANK": 1, "FEATURECLA": "Populated place", "NAME": "Xiamen", "NAMEPAR": null, "NAMEALT": null, "NAMEASCII": "Xiamen", "ADM0CAP": 0, "CAPIN": null, "WORLDCITY": 0, "MEGACITY": 1, "SOV0NAME": "China", "SOV_A3": "CHN", "ADM0NAME": "China", "ADM0_A3": "CHN", "ADM1NAME": "Fujian", "ISO_A2": "CN", "NOTE": "1", "LATITUDE": 24.451938, "LONGITUDE": 118.078071, "POP_MAX": 2519000, "POP_MIN": 578337, "POP_OTHER": 2228198, "RANK_MAX": 12, "RANK_MIN": 11, "MEGANAME": "Xiamen", "LS_NAME": "Xiamen", "MAX_POP10": 1226188, "MAX_POP20": 1226188, "MAX_POP50": 0, "MAX_POP300": 0, "MAX_POP310": 0, "MAX_NATSCA": 20, "MIN_AREAKM": 127, "MAX_AREAKM": 127, "MIN_AREAMI": 49, "MAX_AREAMI": 49, "MIN_PERKM": 97, "MAX_PERKM": 97, "MIN_PERMI": 60, "MAX_PERMI": 60, "MIN_BBXMIN": 118.05, "MAX_BBXMIN": 118.05, "MIN_BBXMAX": 118.2, "MAX_BBXMAX": 118.2, "MIN_BBYMIN": 24.425, "MAX_BBYMIN": 24.425, "MIN_BBYMAX": 24.558333, "MAX_BBYMAX": 24.558333, "MEAN_BBXC": 118.124412, "MEAN_BBYC": 24.489647, "TIMEZONE": "Asia/Shanghai", "UN_FID": 124, "POP1950": 208, "POP1955": 239, "POP1960": 275, "POP1965": 317, "POP1970": 364, "POP1975": 419, "POP1980": 483, "POP1985": 556, "POP1990": 639, "POP1995": 1124, "POP2000": 1977, "POP2005": 2371, "POP2010": 2519, "POP2015": 2739, "POP2020": 3064, "POP2025": 3331, "POP2050": 3545, "MIN_ZOOM": 5.6, "WIKIDATAID": "Q68744", "WOF_ID": 102027043, "CAPALT": 0, "NAME_EN": "Xiamen", "NAME_DE": "Xiamen", "NAME_ES": "Xiamen", "NAME_FR": "Xiamen", "NAME_PT": "Xiamen", "NAME_RU": "Сямэнь", "NAME_ZH": "厦门", "LABEL": null, "NAME_AR": "شيامن", "NAME_BN": "শিয়ামেন", "NAME_EL": "Σιαμέν", "NAME_HI": "शियामेन", "NAME_HU": "Hsziamen", "NAME_ID": "Xiamen", "NAME_IT": "Xiamen", "NAME_JA": "廈門市", "NAME_KO": "샤먼시", "NAME_NL": "Xiamen", "NAME_PL": "Xiamen", "NAME_SV": "Xiamen", "NAME_TR": "Xiamen", "NAME_VI": "Hạ Môn", "NE_ID": 1159149129, "NAME_FA": "شیامن", "NAME_HE": "שיאמן", "NAME_UK": "Сямень", "NAME_UR": "شیامین", "NAME_ZHT": "廈門市", "GEONAMESID": 1790645, "FCLASS_ISO": null, "FCLASS_US": null, "FCLASS_FR": null, "FCLASS_RU": null, "FCLASS_ES": null, "FCLASS_CN": null, "FCLASS_TW": null, "FCLASS_IN": null, "FCLASS_NP": null, "FCLASS_PK": null, "FCLASS_DE": null, "FCLASS_GB": null, "FCLASS_BR": null, "FCLASS_IL": null, "FCLASS_PS": null, "FCLASS_SA": null, "FCLASS_EG": null, "FCLASS_MA": null, "FCLASS_PT": null, "FCLASS_AR": null, "FCLASS_JP": null, "FCLASS_KO": null, "FCLASS_VN": null, "FCLASS_TR": null, "FCLASS_ID": null, "FCLASS_PL": null, "FCLASS_GR": null, "FCLASS_IT": null, "FCLASS_NL": null, "FCLASS_SE": null, "FCLASS_BD": null, "FCLASS_UA": null, "FCLASS_TLC": null}, "bbox": [118.078071, 24.451938, 118.078071, 24.451938], "geometry": {"type": "Point", "coordinates": [118.078071, 24.451938]}}, {"type": "Feature", "properties": {"SCALERANK": 4, "NATSCALE": 50, "LABELRANK": 1, "FEATURECLA": "Populated place", "NAME": "Quanzhou", "NAMEPAR": null, "NAMEALT": null, "NAMEASCII": "Quanzhou", "ADM0CAP": 0, "CAPIN": null, "WORLDCITY": 0, "MEGACITY": 1, "SOV0NAME": "China", "SOV_A3": "CHN", "ADM0NAME": "China", "ADM0_A3": "CHN", "ADM1NAME": "Fujian", "ISO_A2": "CN", "NOTE": null, "LATITUDE": 24.901962, "LONGITUDE": 118.578041, "POP_MAX": 1463000, "POP_MIN": 184143, "POP_OTHER": 5270543, "RANK_MAX": 12, "RANK_MIN": 9, "MEGANAME": "Quanzhou", "LS_NAME": "Quanzhou", "MAX_POP10": 5278982, "MAX_POP20": 5278982, "MAX_POP50": 5827003, "MAX_POP300": 0, "MAX_POP310": 0, "MAX_NATSCA": 50, "MIN_AREAKM": 1669, "MAX_AREAKM": 1978, "MIN_AREAMI": 644, "MAX_AREAMI": 764, "MIN_PERKM": 1353, "MAX_PERKM": 1661, "MIN_PERMI": 841, "MAX_PERMI": 1032, "MIN_BBXMIN": 118.083333, "MAX_BBXMIN": 118.316667, "MIN_BBXMAX": 118.983333, "MAX_BBXMAX": 118.983333, "MIN_BBYMIN": 24.525, "MAX_BBYMIN": 24.525, "MIN_BBYMAX": 25.191667, "MAX_BBYMAX": 25.191667, "MEAN_BBXC": 118.569702, "MEAN_BBYC": 24.843966, "TIMEZONE": "Asia/Shanghai", "UN_FID": 97, "POP1950": 219, "POP1955": 242, "POP1960": 267, "POP1965": 294, "POP1970": 324, "POP1975": 358, "POP1980": 395, "POP1985": 435, "POP1990": 480, "POP1995": 745, "POP2000": 1158, "POP2005": 1377, "POP2010": 1463, "POP2015": 1592, "POP2020": 1787, "POP2025": 1950, "POP2050": 2083, "MIN_ZOOM": 5.6, "WIKIDATAID": "Q68695", "WOF_ID": 102027215, "CAPALT": 0, "NAME_EN": "Quanzhou", "NAME_DE": "Quanzhou", "NAME_ES": "Quanzhou", "NAME_FR": "Quanzhou", "NAME_PT": "Quanzhou", "NAME_RU": "Цюаньчжоу", "NAME_ZH": "泉州", "LABEL": null, "NAME_AR": "تشوانتشو", "NAME_BN": "ছুয়ানচৌ", "NAME_EL": "Τσουάντζοου", "NAME_HI": "चिनझोऊ", "NAME_HU": "Quanzhou", "NAME_ID": "Quanzhou", "NAME_IT": "Quanzhou", "NAME_JA": "泉州市", "NAME_KO": "취안저우시", "NAME_NL": "Quanzhou", "NAME_PL": "Quanzhou", "NAME_SV": "Quanzhou", "NAME_TR": "Quanzhou", "NAME_VI": "Tuyền Châu", "NE_ID": 1159149791, "NAME_FA": "کوانژو", "NAME_HE": "קוואנז'ו", "NAME_UK": "Цюаньчжоу", "NAME_UR": "چوانژو", "NAME_ZHT": "泉州市", "GEONAMESID": 1797353, "FCLASS_ISO": null, "FCLASS_US": null, "FCLASS_FR": null, "FCLASS_RU": null, "FCLASS_ES": null, "FCLASS_CN": null, "FCLASS_TW": null, "FCLASS_IN": null, "FCLASS_NP": null, "FCLASS_PK": null, "FCLASS_DE": null, "FCLASS_GB": null, "FCLASS_BR": null, "FCLASS_IL": null, "FCLASS_PS": null, "FCLASS_SA": null, "FCLASS_EG": null, "FCLASS_MA": null, "FCLASS_PT": null, "FCLASS_AR": null, "FCLASS_JP": null, "FCLASS_KO": null, "FCLASS_VN": null, "FCLASS_TR": null, "FCLASS_ID": null, "FCLASS_PL": null, "FCLASS_GR": null, "FCLASS_IT": null, "FCLASS_NL": null, "FCLASS_SE": null, "FCLASS_BD": null, "FCLASS_UA": null, "FCLASS_TLC": null}, "bbox": [118.578041, 24.901962, 118.578041, 24.901962], "geometry": {"type": "Point", "coordinates": [118.578041, 24.901962]}}, {"type": "Feature", "properties": {"SCALERANK": 4, "NATSCALE": 50, "LABELRANK": 1, "FEATURECLA": "Populated place", "NAME": "Shaoguan", "NAMEPAR": null, "NAMEALT": null, "NAMEASCII": "Shaoguan", "ADM0CAP": 0, "CAPIN": null, "WORLDCITY": 0, "MEGACITY": 0, "SOV0NAME": "China", "SOV_A3": "CHN", "ADM0NAME": "China", "ADM0_A3": "CHN", "ADM1NAME": "Guangdong", "ISO_A2": "CN", "NOTE": null, "LATITUDE": 24.799971, "LONGITUDE": 113.579982, "POP_MAX": 720266, "POP_MIN": 628749, "POP_OTHER": 715347, "RANK_MAX": 11, "RANK_MIN": 11, "MEGANAME": null, "LS_NAME": "Shaoguan", "MAX_POP10": 720266, "MAX_POP20": 720266, "MAX_POP50": 720266, "MAX_POP300": 0, "MAX_POP310": 0, "MAX_NATSCA": 50, "MIN_AREAKM": 198, "MAX_AREAKM": 198, "MIN_AREAMI": 76, "MAX_AREAMI": 76, "MIN_PERKM": 210, "MAX_PERKM": 210, "MIN_PERMI": 131, "MAX_PERMI": 131, "MIN_BBXMIN": 113.5, "MAX_BBXMIN": 113.5, "MIN_BBXMAX": 113.666667, "MAX_BBXMAX": 113.666667, "MIN_BBYMIN": 24.65, "MAX_BBYMIN": 24.65, "MIN_BBYMAX": 24.916667, "MAX_BBYMAX": 24.916667, "MEAN_BBXC": 113.570965, "MEAN_BBYC": 24.77336, "TIMEZONE": "Asia/Chongqing", "UN_FID": 0, "POP1950": 0, "POP1955": 0, "POP1960": 0, "POP1965": 0, "POP1970": 0, "POP1975": 0, "POP1980": 0, "POP1985": 0, "POP1990": 0, "POP1995": 0, "POP2000": 0, "POP2005": 0, "POP2010": 0, "POP2015": 0, "POP2020": 0, "POP2025": 0, "POP2050": 0, "MIN_ZOOM": 5.1, "WIKIDATAID": "Q59107", "WOF_ID": 102027171, "CAPALT": 0, "NAME_EN": "Shaoguan", "NAME_DE": "Shaoguan", "NAME_ES": "Shaoguan", "NAME_FR": "Shaoguan", "NAME_PT": "Shaoguan", "NAME_RU": "Шаогуань", "NAME_ZH": "韶关", "LABEL": null, "NAME_AR": "شاوغوان", "NAME_BN": "শাওকুয়ান", "NAME_EL": "Σαογκουάν", "NAME_HI": "शाओगुआं", "NAME_HU": "Shaoguan", "NAME_ID": "Shaoguan", "NAME_IT": "Shaoguan", "NAME_JA": "韶関市", "NAME_KO": "사오관시", "NAME_NL": "Shaoguan", "NAME_PL": "Shaoguan", "NAME_SV": "Shaoguan", "NAME_TR": "Shaoguan", "NAME_VI": "Thiều Quan", "NE_ID": 1159149799, "NAME_FA": "شاوگوان", "NAME_HE": "שאוגואן", "NAME_UK": "Шаогуань", "NAME_UR": "شاوگوان", "NAME_ZHT": "韶關市", "GEONAMESID": 1795874, "FCLASS_ISO": null, "FCLASS_US": null, "FCLASS_FR": null, "FCLASS_RU": null, "FCLASS_ES": null, "FCLASS_CN": null, "FCLASS_TW": null, "FCLASS_IN": null, "FCLASS_NP": null, "FCLASS_PK": null, "FCLASS_DE": null, "FCLASS_GB": null, "FCLASS_BR": null, "FCLASS_IL": null, "FCLASS_PS": null, "FCLASS_SA": null, "FCLASS_EG": null, "FCLASS_MA": null, "FCLASS_PT": null, "FCLASS_AR": null, "FCLASS_JP": null, "FCLASS_KO": null, "FCLASS_VN": null, "FCLASS_TR": null, "FCLASS_ID": null, "FCLASS_PL": null, "FCLASS_GR": null, "FCLASS_IT": null, "FCLASS_NL": null, "FCLASS_SE": null, "FCLASS_BD": null, "FCLASS_UA": null, "FCLASS_TLC": null}, "bbox": [113.579982, 24.799971, 113.579982, 24.799971], "geometry": {"type": "Point", "coordinates": [113.579982, 24.799971]}}, {"type": "Feature", "properties": {"SCALERANK": 3, "NATSCALE": 110, "LABELRANK": 1, "FEATURECLA": "Populated place", "NAME": "Pingxiang", "NAMEPAR": null, "NAMEALT": "Pingxiang, Jiangxi", "NAMEASCII": "Pingxiang", "ADM0CAP": 0, "CAPIN": null, "WORLDCITY": 0, "MEGACITY": 1, "SOV0NAME": "China", "SOV_A3": "CHN", "ADM0NAME": "China", "ADM0_A3": "CHN", "ADM1NAME": "Jiangxi", "ISO_A2": "CN", "NOTE": null, "LATITUDE": 27.621951, "LONGITUDE": 113.848097, "POP_MAX": 961000, "POP_MIN": 372123, "POP_OTHER": 31109, "RANK_MAX": 11, "RANK_MIN": 10, "MEGANAME": "Pingxiang, Jiangxi", "LS_NAME": "Pingxiang2", "MAX_POP10": 733191, "MAX_POP20": 733191, "MAX_POP50": 733191, "MAX_POP300": 733191, "MAX_POP310": 0, "MAX_NATSCA": 100, "MIN_AREAKM": 152, "MAX_AREAKM": 152, "MIN_AREAMI": 59, "MAX_AREAMI": 59, "MIN_PERKM": 158, "MAX_PERKM": 158, "MIN_PERMI": 98, "MAX_PERMI": 98, "MIN_BBXMIN": 113.7, "MAX_BBXMIN": 113.7, "MIN_BBXMAX": 113.933333, "MAX_BBXMAX": 113.933333, "MIN_BBYMIN": 27.575, "MAX_BBYMIN": 27.575, "MIN_BBYMAX": 27.741667, "MAX_BBYMAX": 27.741667, "MEAN_BBXC": 113.833042, "MEAN_BBYC": 27.659333, "TIMEZONE": "Asia/Chongqing", "UN_FID": 93, "POP1950": 166, "POP1955": 193, "POP1960": 226, "POP1965": 263, "POP1970": 307, "POP1975": 359, "POP1980": 418, "POP1985": 488, "POP1990": 569, "POP1995": 664, "POP2000": 775, "POP2005": 905, "POP2010": 961, "POP2015": 1047, "POP2020": 1178, "POP2025": 1289, "POP2050": 1381, "MIN_ZOOM": 5, "WIKIDATAID": "Q362865", "WOF_ID": 890512887, "CAPALT": 0, "NAME_EN": "Pingxiang", "NAME_DE": "Pingxiang", "NAME_ES": "Pingxiang", "NAME_FR": "Pingxiang", "NAME_PT": "Pingxiang", "NAME_RU": "Пинсян", "NAME_ZH": "萍乡", "LABEL": null, "NAME_AR": "بينغشيانغ", "NAME_BN": "পিংশিয়াং", "NAME_EL": "Πινγκξιάνγκ", "NAME_HI": "पिंगज़ियांग", "NAME_HU": "Pinghsziang", "NAME_ID": "Pingxiang", "NAME_IT": "Pingxiang", "NAME_JA": "萍郷市", "NAME_KO": "핑샹시", "NAME_NL": "Pingxiang", "NAME_PL": "Pingxiang", "NAME_SV": "Pingxiang", "NAME_TR": "Pingxiang", "NAME_VI": "Bình Hương", "NE_ID": 1159150891, "NAME_FA": "پینگشیانگ", "NAME_HE": "פינגקסיאנג", "NAME_UK": "Пінсян", "NAME_UR": "پنگشیانگ", "NAME_ZHT": "萍鄉市", "GEONAMESID": 1798654, "FCLASS_ISO": null, "FCLASS_US": null, "FCLASS_FR": null, "FCLASS_RU": null, "FCLASS_ES": null, "FCLASS_CN": null, "FCLASS_TW": null, "FCLASS_IN": null, "FCLASS_NP": null, "FCLASS_PK": null, "FCLASS_DE": null, "FCLASS_GB": null, "FCLASS_BR": null, "FCLASS_IL": null, "FCLASS_PS": null, "FCLASS_SA": null, "FCLASS_EG": null, "FCLASS_MA": null, "FCLASS_PT": null, "FCLASS_AR": null, "FCLASS_JP": null, "FCLASS_KO": null, "FCLASS_VN": null, "FCLASS_TR": null, "FCLASS_ID": null, "FCLASS_PL": null, "FCLASS_GR": null, "FCLASS_IT": null, "FCLASS_NL": null, "FCLASS_SE": null, "FCLASS_BD": null, "FCLASS_UA": null, "FCLASS_TLC": null}, "bbox": [113.848097, 27.621951, 113.848097, 27.621951], "geometry": {"type": "Point", "coordinates": [113.848097, 27.621951]}}, {"type": "Feature", "properties": {"SCALERANK": 2, "NATSCALE": 200, "LABELRANK": 1, "FEATURECLA": "Admin-1 capital", "NAME": "Nanchang", "NAMEPAR": null, "NAMEALT": null, "NAMEASCII": "Nanchang", "ADM0CAP": 0, "CAPIN": null, "WORLDCITY": 0, "MEGACITY": 1, "SOV0NAME": "China", "SOV_A3": "CHN", "ADM0NAME": "China", "ADM0_A3": "CHN", "ADM1NAME": "Jiangxi", "ISO_A2": "CN", "NOTE": null, "LATITUDE": 28.681938, "LONGITUDE": 115.87805, "POP_MAX": 2350000, "POP_MIN": 1871351, "POP_OTHER": 2698545, "RANK_MAX": 12, "RANK_MIN": 12, "MEGANAME": "Nanchang", "LS_NAME": "Nanchang", "MAX_POP10": 2782995, "MAX_POP20": 2782995, "MAX_POP50": 4718428, "MAX_POP300": 4894488, "MAX_POP310": 0, "MAX_NATSCA": 100, "MIN_AREAKM": 1102, "MAX_AREAKM": 3201, "MIN_AREAMI": 425, "MAX_AREAMI": 1236, "MIN_PERKM": 992, "MAX_PERKM": 3587, "MIN_PERMI": 616, "MAX_PERMI": 2229, "MIN_BBXMIN": 114.930288, "MAX_BBXMIN": 115.716667, "MIN_BBXMAX": 116.2, "MAX_BBXMAX": 116.625, "MIN_BBYMIN": 27.75, "MAX_BBYMIN": 28.37509, "MIN_BBYMAX": 28.891667, "MAX_BBYMAX": 28.891667, "MEAN_BBXC": 115.869192, "MEAN_BBYC": 28.488934, "TIMEZONE": "Asia/Shanghai", "UN_FID": 84, "POP1950": 343, "POP1955": 440, "POP1960": 564, "POP1965": 704, "POP1970": 794, "POP1975": 896, "POP1980": 1011, "POP1985": 1133, "POP1990": 1262, "POP1995": 1516, "POP2000": 1822, "POP2005": 2188, "POP2010": 2350, "POP2015": 2585, "POP2020": 2911, "POP2025": 3168, "POP2050": 3373, "MIN_ZOOM": 4.7, "WIKIDATAID": "Q171943", "WOF_ID": 102027295, "CAPALT": 0, "NAME_EN": "Nanchang", "NAME_DE": "Nanchang", "NAME_ES": "Nanchang", "NAME_FR": "Nanchang", "NAME_PT": "Nanchang", "NAME_RU": "Наньчан", "NAME_ZH": "南昌", "LABEL": null, "NAME_AR": "نانتشانغ", "NAME_BN": "নানছাং", "NAME_EL": "Ναντσάνγκ", "NAME_HI": "नानचांग", "NAME_HU": "Nancsang", "NAME_ID": "Nanchang", "NAME_IT": "Nanchang", "NAME_JA": "南昌市", "NAME_KO": "난창시", "NAME_NL": "Nanchang", "NAME_PL": "Nanchang", "NAME_SV": "Nanchang", "NAME_TR": "Nanchang", "NAME_VI": "Nam Xương", "NE_ID": 1159151383, "NAME_FA": "نانچانگ", "NAME_HE": "נאנצ'אנג", "NAME_UK": "Наньчан", "NAME_UR": "نانچانگ", "NAME_ZHT": "南昌市", "GEONAMESID": 1800163, "FCLASS_ISO": null, "FCLASS_US": null, "FCLASS_FR": null, "FCLASS_RU": null, "FCLASS_ES": null, "FCLASS_CN": null, "FCLASS_TW": null, "FCLASS_IN": null, "FCLASS_NP": null, "FCLASS_PK": null, "FCLASS_DE": null, "FCLASS_GB": null, "FCLASS_BR": null, "FCLASS_IL": null, "FCLASS_PS": null, "FCLASS_SA": null, "FCLASS_EG": null, "FCLASS_MA": null, "FCLASS_PT": null, "FCLASS_AR": null, "FCLASS_JP": null, "FCLASS_KO": null, "FCLASS_VN": null, "FCLASS_TR": null, "FCLASS_ID": null, "FCLASS_PL": null, "FCLASS_GR": null, "FCLASS_IT": null, "FCLASS_NL": null, "FCLASS_SE": null, "FCLASS_BD": null, "FCLASS_UA": null, "FCLASS_TLC": null}, "bbox": [115.87805, 28.681938, 115.87805, 28.681938], "geometry": {"type": "Point", "coordinates": [115.87805, 28.681938]}}]}